id,name,city,country,icao,tz,latitude,longitude
3411,Barter Island LRRS Airport,Barter Island,USA,PABA,America/Anchorage,70.13400269,-143.5820007
3413,Cape Lisburne LRRS Airport,Cape Lisburne,USA,PALU,America/Anchorage,68.87509918,-166.1100006
3414,Point Lay LRRS Airport,Point Lay,USA,PPIZ,America/Anchorage,69.73290253,-163.0050049
3415,Hilo International Airport,Hilo,USA,PHTO,Pacific/Honolulu,19.72139931,-155.0480042
3416,Orlando Executive Airport,Orlando,USA,KORL,America/New_York,28.5454998,-81.332901
3417,Bettles Airport,Bettles,USA,PABT,America/Anchorage,66.91390228,-151.529007
3418,Clear Airport,Clear Mews,USA,PACL,America/Anchorage,64.301201,-149.119995
3419,Indian Mountain LRRS Airport,Indian Mountains,USA,PAIM,America/Anchorage,65.99279785,-153.7039948
3420,Fort Yukon Airport,Fort Yukon,USA,PFYU,America/Anchorage,66.57150269,-145.25
3421,Sparrevohn LRRS Airport,Sparrevohn,USA,PASV,America/Anchorage,61.09740067,-155.5740051
3422,Bryant Army Heliport,Fort Richardson,USA,PAFR,America/Anchorage,61.26639938,-149.6529999
3423,Tatalina LRRS Airport,Tatalina,USA,PATL,America/Anchorage,62.89440155,-155.977005
3424,Cape Romanzof LRRS Airport,Cape Romanzof,USA,PACZ,America/Anchorage,61.78030014,-166.0390015
3425,Laurence G Hanscom Field,Bedford,USA,KBED,America/New_York,42.47000122,-71.28900146
3426,St Paul Island Airport,St. Paul Island,USA,PASN,America/Anchorage,57.16730118,-170.2200012
3427,Cape Newenham LRRS Airport,Cape Newenham,USA,PAEH,America/Anchorage,58.64640045,-162.0630035
3428,St George Airport,Point Barrow,USA,PAPB,America/Anchorage,56.57830048,-169.6620026
3429,Iliamna Airport,Iliamna,USA,PAIL,America/Anchorage,59.75439835,-154.9109955
3430,Platinum Airport,Port Moller,USA,PAPM,America/Anchorage,59.01139832,-161.8200073
3431,Big Mountain Airport,Big Mountain,USA,PABM,America/Anchorage,59.36119843,-155.2590027
3432,Oscoda Wurtsmith Airport,Oscoda,USA,KOSC,America/New_York,44.45159912,-83.39409637
3433,Marina Municipal Airport,Fort Ord,USA,KOAR,America/Los_Angeles,36.68190002,-121.762001
3434,Sacramento Mather Airport,Sacramento,USA,KMHR,America/Los_Angeles,38.55390167,-121.2979965
3435,Bicycle Lake Army Air Field,Fort Irwin,USA,KBYS,America/Los_Angeles,35.2804985,-116.6299973
3436,Twentynine Palms (Self) Airport,Twenty Nine Palms,USA,KNXP,America/Los_Angeles,34.2961998,-116.1620026
3437,Fort Smith Regional Airport,Fort Smith,USA,KFSM,America/Chicago,35.33660126,-94.36740112
3438,Merrill Field,Anchorage,USA,PAMR,America/Anchorage,61.21350098,-149.8439941
3439,Grants-Milan Municipal Airport,Grants,USA,KGNT,America/Denver,35.16730118,-107.9020004
3440,Ponca City Regional Airport,Ponca City,USA,KPNC,America/Chicago,36.73199844,-97.09980011
3441,Hunter Army Air Field,Hunter Aaf,USA,KSVN,America/New_York,32.00999832,-81.14569855
3442,Grand Forks International Airport,Grand Forks,USA,KGFK,America/Chicago,47.949299,-97.176102
3443,Grider Field,Pine Bluff,USA,KPBF,America/Chicago,34.17309952,-91.93560028
3444,Whiting Field Naval Air Station - North,Milton,USA,KNSE,America/Chicago,30.7241993,-87.02189636
3445,Hana Airport,Hana,USA,PHHN,Pacific/Honolulu,20.79560089,-156.0140076
3446,Ernest A. Love Field,Prescott,USA,KPRC,America/Phoenix,34.65449905,-112.4199982
3447,Trenton Mercer Airport,Trenton,USA,KTTN,America/New_York,40.27669907,-74.81349945
3448,General Edward Lawrence Logan International Airport,Boston,USA,KBOS,America/New_York,42.36429977,-71.00520325
3449,Travis Air Force Base,Fairfield,USA,KSUU,America/Los_Angeles,38.26269913,-121.927002
3450,Griffiss International Airport,Rome,USA,KRME,America/New_York,43.23379898,-75.40699768
3451,Wendover Airport,Wendover,USA,KENV,America/Denver,40.71870041,-114.0309982
3452,Mobile Downtown Airport,Mobile,USA,KBFM,America/Chicago,30.62680054,-88.06809998
3453,Metropolitan Oakland International Airport,Oakland,USA,KOAK,America/Los_Angeles,37.72129822,-122.2210007
3454,Eppley Airfield,Omaha,USA,KOMA,America/Chicago,41.30319977,-95.89409637
3455,Port Angeles Cgas Airport,Port Angeles,USA,KNOW,America/Los_Angeles,48.14149857,-123.4140015
3456,Kahului Airport,Kahului,USA,PHOG,Pacific/Honolulu,20.89859962,-156.4299927
3457,Wichita Mid Continent Airport,Wichita,USA,KICT,America/Chicago,37.64989853,-97.43309784
3458,Kansas City International Airport,Kansas City,USA,KMCI,America/Chicago,39.2976,-94.713898
3459,Dane County Regional Truax Field,Madison,USA,KMSN,America/Chicago,43.13990021,-89.33750153
3460,Dillingham Airport,Dillingham,USA,PADL,America/Anchorage,59.04470062,-158.5050049
3461,Boone County Airport,Harrison,USA,KHRO,America/Chicago,36.26150131,-93.15470123
3462,Phoenix Sky Harbor International Airport,Phoenix,USA,KPHX,America/Phoenix,33.43429947,-112.012001
3463,Bangor International Airport,Bangor,USA,KBGR,America/New_York,44.80739975,-68.82810211
3464,Fort Lauderdale Executive Airport,Fort Lauderdale,USA,KFXE,America/New_York,26.19729996,-80.17070007
3465,East Texas Regional Airport,Longview,USA,KGGG,America/Chicago,32.38399887,-94.71150208
3466,Anderson Regional Airport,Andersen,USA,KAND,America/New_York,34.49459839,-82.70939636
3467,Spokane International Airport,Spokane,USA,KGEG,America/Los_Angeles,47.61989975,-117.5339966
3468,North Perry Airport,Hollywood,USA,KHWO,America/New_York,26.00119972,-80.24069977
3469,San Francisco International Airport,San Francisco,USA,KSFO,America/Los_Angeles,37.61899948,-122.375
3470,Cut Bank International Airport,Cutbank,USA,KCTB,America/Denver,48.60839844,-112.3759995
3471,Acadiana Regional Airport,Louisiana,USA,KARA,America/Chicago,30.0378,-91.883904
3472,Gainesville Regional Airport,Gainesville,USA,KGNV,America/New_York,29.69009972,-82.27179718
3473,Memphis International Airport,Memphis,USA,KMEM,America/Chicago,35.04240036,-89.97669983
3474,Bisbee Douglas International Airport,Douglas,USA,KDUG,America/Phoenix,31.46899986,-109.6039963
3475,Allen Army Airfield,Delta Junction,USA,PABI,America/Anchorage,63.99449921,-145.7220001
3476,TSTC Waco Airport,Waco,USA,KCNW,America/Chicago,31.63780022,-97.07409668
3477,Annette Island Airport,Annette Island,USA,PANT,America/Anchorage,55.04240036,-131.5720062
3478,Caribou Municipal Airport,Caribou,USA,KCAR,America/New_York,46.87149811,-68.01789856
3479,Little Rock Air Force Base,Jacksonville,USA,KLRF,America/Chicago,34.91690063,-92.14969635
3480,Redstone Army Air Field,Redstone,USA,KHUA,America/Chicago,34.67869949,-86.68479919
3481,Pope Field,Fort Bragg,USA,KPOB,America/New_York,35.17089844,-79.01450348
3482,Dalhart Municipal Airport,Dalhart,USA,KDHT,America/Chicago,36.02259827,-102.5469971
3483,Laughlin Air Force Base,Del Rio,USA,KDLF,America/Chicago,29.35950089,-100.7779999
3484,Los Angeles International Airport,Los Angeles,USA,KLAX,America/Los_Angeles,33.94250107,-118.4079971
3485,Anniston Metropolitan Airport,Anniston,USA,KANB,America/Chicago,33.58819962,-85.85810089
3486,Cleveland Hopkins International Airport,Cleveland,USA,KCLE,America/New_York,41.4117012,-81.84980011
3487,Dover Air Force Base,Dover,USA,KDOV,America/New_York,39.12950134,-75.46600342
3488,Cincinnati Northern Kentucky International Airport,Cincinnati,USA,KCVG,America/New_York,39.04880142,-84.6678009
3489,Tipton Airport,Fort Meade,USA,KFME,America/New_York,39.08539963,-76.75939941
3490,China Lake Naws (Armitage Field) Airport,China Lake,USA,KNID,America/Los_Angeles,35.6853981,-117.6920013
3491,Huron Regional Airport,Huron,USA,KHON,America/Chicago,44.3852005,-98.22850037
3492,Juneau International Airport,Juneau,USA,PAJN,America/Anchorage,58.35499954,-134.576004
3493,Lafayette Regional Airport,Lafayette,USA,KLFT,America/Chicago,30.20529938,-91.98760223
3494,Newark Liberty International Airport,Newark,USA,KEWR,America/New_York,40.69250107,-74.16870117
3495,Boise Air Terminal/Gowen field,Boise,USA,KBOI,America/Denver,43.56439972,-116.2229996
3496,Creech Air Force Base,Indian Springs,USA,KINS,America/Los_Angeles,36.58720016,-115.6729965
3497,Garden City Regional Airport,Garden City,USA,KGCK,America/Chicago,37.92750168,-100.723999
3498,Minot International Airport,Minot,USA,KMOT,America/Chicago,48.25939941,-101.2799988
3499,Wheeler Army Airfield,Wahiawa,USA,PHHI,Pacific/Honolulu,21.48349953,-158.0399933
3500,Maxwell Air Force Base,Montgomery,USA,KMXF,America/Chicago,32.38290024,-86.36579895
3501,Robinson Army Air Field,Robinson,USA,KRBM,America/Chicago,34.85010147,-92.30020142
3502,Dallas Love Field,Dallas,USA,KDAL,America/Chicago,32.8470993,-96.85179901
3503,Butts AAF (Fort Carson) Air Field,Fort Carson,USA,KFCS,America/Denver,38.67839813,-104.7570038
3504,Helena Regional Airport,Helena,USA,KHLN,America/Denver,46.60680008,-111.9830017
3505,Miramar Marine Corps Air Station - Mitscher Field,Miramar,USA,KNKX,America/Los_Angeles,32.86840057,-117.1429977
3506,Luke Air Force Base,Phoenix,USA,KLUF,America/Phoenix,33.53499985,-112.3830032
3507,Hurlburt Field,Mary Esther,USA,KHRT,America/Chicago,30.42779922,-86.68930054
3508,Jack Northrop Field Hawthorne Municipal Airport,Hawthorne,USA,KHHR,America/Los_Angeles,33.922798,-118.334999
3509,Houlton International Airport,Houlton,USA,KHUL,America/New_York,46.12310028,-67.792099
3510,Vance Air Force Base,Enid,USA,KEND,America/Chicago,36.33919907,-97.91649628
3511,Point Mugu Naval Air Station (Naval Base Ventura Co),Point Mugu,USA,KNTD,America/Los_Angeles,34.12030029,-119.1210022
3512,Edwards Air Force Base,Edwards Afb,USA,KEDW,America/Los_Angeles,34.905399,-117.884003
3513,Lake Charles Regional Airport,Lake Charles,USA,KLCH,America/Chicago,30.12610054,-93.22329712
3514,Kona International At Keahole Airport,Kona,USA,PHKO,Pacific/Honolulu,19.73880005,-156.0460052
3515,Myrtle Beach International Airport,Myrtle Beach,USA,KMYR,America/New_York,33.67969894,-78.92829895
3516,Lemoore Naval Air Station (Reeves Field) Airport,Lemoore,USA,KNLC,America/Los_Angeles,36.33300018,-119.9520035
3517,Nantucket Memorial Airport,Nantucket,USA,KACK,America/New_York,41.25310135,-70.06020355
3518,Felker Army Air Field,Fort Eustis,USA,KFAF,America/New_York,37.13249969,-76.6088028
3519,Campbell AAF (Fort Campbell) Air Field,Hopkinsville,USA,KHOP,America/Chicago,36.66859818,-87.49620056
3520,Ronald Reagan Washington National Airport,Washington,USA,KDCA,America/New_York,38.8521,-77.037697
3521,Patuxent River Naval Air Station/Trapnell Field Aiport,Patuxent River,USA,KNHK,America/New_York,38.2859993,-76.41179657
3522,Palacios Municipal Airport,Palacios,USA,KPSX,America/Chicago,28.72750092,-96.25099945
3523,Arkansas International Airport,Blytheville,USA,KBYH,America/Chicago,35.96429825,-89.94400024
3524,Atlantic City International Airport,Atlantic City,USA,KACY,America/New_York,39.45759964,-74.57720184
3525,Tinker Air Force Base,Oklahoma City,USA,KTIK,America/Chicago,35.41469955,-97.38659668
3527,Pueblo Memorial Airport,Pueblo,USA,KPUB,America/Denver,38.28910065,-104.4970016
3528,Northern Maine Regional Airport at Presque Isle,Presque Isle,USA,KPQI,America/New_York,46.68899918,-68.0447998
3530,Gray Army Air Field,Fort Lewis,USA,KGRF,America/Los_Angeles,47.07920074,-122.5810013
3531,Kodiak Airport,Kodiak,USA,PADQ,America/Anchorage,57.75,-152.4940033
3532,Upolu Airport,Opolu,USA,PHUP,Pacific/Honolulu,20.26530075,-155.8600006
3533,Fort Lauderdale Hollywood International Airport,Fort Lauderdale,USA,KFLL,America/New_York,26.07259941,-80.15270233
3534,Davis Field,Muskogee,USA,KMKO,America/Chicago,35.65650177,-95.36669922
3535,Falls International Airport,International Falls,USA,KINL,America/Chicago,48.56620026,-93.40309906
3536,Salt Lake City International Airport,Salt Lake City,USA,KSLC,America/Denver,40.78839874,-111.9779968
3537,Childress Municipal Airport,Childress,USA,KCDS,America/Chicago,34.43379974,-100.288002
3538,Keesler Air Force Base,Biloxi,USA,KBIX,America/Chicago,30.41040039,-88.92440033
3539,Lawson Army Air Field (Fort Benning),Fort Benning,USA,KLSF,America/New_York,32.33729935,-84.99130249
3541,Marshall Army Air Field,Fort Riley,USA,KFRI,America/Chicago,39.05530167,-96.76450348
3542,Harrisburg International Airport,Harrisburg,USA,KMDT,America/New_York,40.19350052,-76.76339722
3543,Lincoln Airport,Lincoln,USA,KLNK,America/Chicago,40.85100174,-96.75920105
3544,Capital City Airport,Lansing,USA,KLAN,America/New_York,42.77870178,-84.58740234
3545,Waimea Kohala Airport,Kamuela,USA,PHMU,Pacific/Honolulu,20.00130081,-155.6679993
3546,Massena International Richards Field,Massena,USA,KMSS,America/New_York,44.93579865,-74.84559631
3547,Hickory Regional Airport,Hickory,USA,KHKY,America/New_York,35.74110031,-81.38950348
3548,Albert Whitted Airport,St. Petersburg,USA,KSPG,America/New_York,27.76510048,-82.6269989
3549,Page Field,Fort Myers,USA,KFMY,America/New_York,26.58659935,-81.86329651
3550,George Bush Intercontinental Houston Airport,Houston,USA,KIAH,America/Chicago,29.9843998,-95.34140015
3551,Millinocket Municipal Airport,Millinocket,USA,KMLT,America/New_York,45.64780045,-68.68560028
3552,Andrews Air Force Base,Camp Springs,USA,KADW,America/New_York,38.81079865,-76.86699677
3553,Smith Reynolds Airport,Winston-salem,USA,KINT,America/New_York,36.13370132,-80.22200012
3554,Southern California Logistics Airport,Victorville,USA,KVCV,America/Los_Angeles,34.59749985,-117.3830032
3555,Bob Sikes Airport,Crestview,USA,KCEW,America/Chicago,30.77879906,-86.52210236
3556,Wheeler Sack Army Air Field,Fort Drum,USA,KGTB,America/New_York,44.05559921,-75.71949768
3557,St Clair County International Airport,Port Huron,USA,KPHN,America/New_York,42.9109993,-82.52890015
3558,Meadows Field,Bakersfield,USA,KBFL,America/Los_Angeles,35.43360138,-119.0569992
3559,El Paso International Airport,El Paso,USA,KELP,America/Denver,31.80719948,-106.3779984
3560,Valley International Airport,Harlingen,USA,KHRL,America/Chicago,26.22850037,-97.65440369
3561,Columbia Metropolitan Airport,Columbia,USA,KCAE,America/New_York,33.93880081,-81.11949921
3562,Davis Monthan Air Force Base,Tucson,USA,KDMA,America/Phoenix,32.16650009,-110.8830032
3563,Pensacola Naval Air Station/Forrest Sherman Field,Pensacola,USA,KNPA,America/Chicago,30.35269928,-87.31860352
3564,Pensacola Regional Airport,Pensacola,USA,KPNS,America/Chicago,30.47340012,-87.18659973
3565,Grand Forks Air Force Base,Red River,USA,KRDR,America/Chicago,47.96110153,-97.40119934
3566,William P Hobby Airport,Houston,USA,KHOU,America/Chicago,29.64539909,-95.27890015
3567,Buckley Air Force Base,Buckley,USA,KBKF,America/Denver,39.7016983,-104.7519989
3568,Northway Airport,Northway,USA,PAOR,America/Anchorage,62.9612999,-141.9290009
3569,Palmer Municipal Airport,Palmer,USA,PAAQ,America/Anchorage,61.59489822,-149.0890045
3570,Pittsburgh International Airport,Pittsburgh,USA,KPIT,America/New_York,40.49150085,-80.23290253
3571,Wiley Post Will Rogers Memorial Airport,Barrow,USA,PABR,America/Anchorage,71.285402,-156.766008
3572,Ellington Airport,Houston,USA,KEFD,America/Chicago,29.6072998,-95.15879822
3573,Whidbey Island Naval Air Station /Ault Field/ Airport,Whidbey Island,USA,KNUW,America/Los_Angeles,48.35179901,-122.6559982
3574,Alice International Airport,Alice,USA,KALI,America/Chicago,27.74090004,-98.02690125
3575,Moody Air Force Base,Valdosta,USA,KVAD,America/New_York,30.96780014,-83.19300079
3576,Miami International Airport,Miami,USA,KMIA,America/New_York,25.79319954,-80.29060364
3577,Seattle Tacoma International Airport,Seattle,USA,KSEA,America/Los_Angeles,47.44900131,-122.3089981
3578,Lovell Field,Chattanooga,USA,KCHA,America/New_York,35.03530121,-85.20379639
3579,Igor I Sikorsky Memorial Airport,Stratford,USA,KBDR,America/New_York,41.16350174,-73.12619781
3580,Jackson-Medgar Wiley Evers International Airport,Jackson,USA,KJAN,America/Chicago,32.31119919,-90.07589722
3581,Scholes International At Galveston Airport,Galveston,USA,KGLS,America/Chicago,29.26530075,-94.86039734
3582,Long Beach /Daugherty Field/ Airport,Long Beach,USA,KLGB,America/Los_Angeles,33.81769943,-118.1520004
3583,Dillingham Airfield,Dillingham,USA,PHDH,Pacific/Honolulu,21.5795002,-158.1970062
3584,Williamsport Regional Airport,Williamsport,USA,KIPT,America/New_York,41.2417984,-76.9210968
3585,Indianapolis International Airport,Indianapolis,USA,KIND,America/New_York,39.7173,-86.294403
3586,Whiteman Air Force Base,Knobnoster,USA,KSZL,America/Chicago,38.7303009,-93.54789734
3587,Akron Fulton International Airport,Akron,USA,KAKR,America/New_York,41.03749847,-81.46690369
3588,Greenwood–Leflore Airport,Greenwood,USA,KGWO,America/Chicago,33.49430084,-90.08470154
3589,Westchester County Airport,White Plains,USA,KHPN,America/New_York,41.06700134,-73.70760345
3590,Francis S Gabreski Airport,West Hampton Beach,USA,KFOK,America/New_York,40.84370041,-72.63179779
3591,Jonesboro Municipal Airport,Jonesboro,USA,KJBR,America/Chicago,35.83169937,-90.64640045
3592,Tonopah Test Range Airport,Tonopah,USA,KTNX,America/Los_Angeles,37.79880142,-116.7809982
3593,Palm Beach County Park Airport,West Palm Beach,USA,KLNA,America/New_York,26.59300041,-80.08509827
3594,North Island Naval Air Station-Halsey Field,San Diego,USA,KNZY,America/Los_Angeles,32.69919968,-117.2149963
3595,Biggs Army Air Field (Fort Bliss),El Paso,USA,KBIF,America/Denver,31.84950066,-106.3799973
3596,Yuma MCAS/Yuma International Airport,Yuma,USA,KNYL,America/Phoenix,32.65660095,-114.6060028
3597,Cavern City Air Terminal,Carlsbad,USA,KCNM,America/Denver,32.33750153,-104.2630005
3598,Duluth International Airport,Duluth,USA,KDLH,America/Chicago,46.84209824,-92.19360352
3599,Bethel Airport,Bethel,USA,PABE,America/Anchorage,60.77980042,-161.8379974
3600,Bowman Field,Louisville,USA,KLOU,America/New_York,38.22800064,-85.66369629
3601,Sierra Vista Municipal Libby Army Air Field,Fort Huachuca,USA,KFHU,America/Phoenix,31.58849907,-110.3440018
3602,Lihue Airport,Lihue,USA,PHLI,Pacific/Honolulu,21.97599983,-159.3390045
3603,Terre Haute International Hulman Field,Terre Haute,USA,KHUF,America/New_York,39.45149994,-87.30760193
3604,Havre City County Airport,Havre,USA,KHVR,America/Denver,48.54299927,-109.762001
3605,Grant County International Airport,Grant County Airport,USA,KMWH,America/Los_Angeles,47.20769882,-119.3199997
3606,Edward F Knapp State Airport,Montpelier,USA,KMPV,America/New_York,44.20349884,-72.56230164
3607,San Nicolas Island Nolf Airport,San Nicolas Island,USA,KNSI,America/Los_Angeles,33.2397995,-119.4580002
3608,Richmond International Airport,Richmond,USA,KRIC,America/New_York,37.50519943,-77.31970215
3609,Shreveport Regional Airport,Shreveport,USA,KSHV,America/Chicago,32.44660187,-93.82559967
3610,Merle K (Mudhole) Smith Airport,Cordova,USA,PACV,America/Anchorage,60.4917984,-145.4779968
3611,Norfolk International Airport,Norfolk,USA,KORF,America/New_York,36.89459991,-76.20120239
3612,Southeast Texas Regional Airport,Beaumont,USA,KBPT,America/Chicago,29.95079994,-94.02069855
3613,Savannah Hilton Head International Airport,Savannah,USA,KSAV,America/New_York,32.12760162,-81.20210266
3614,Hill Air Force Base,Ogden,USA,KHIF,America/Denver,41.12403,-111.973086
3615,Nome Airport,Nome,USA,PAOM,America/Anchorage,64.5121994,-165.4450073
3616,Scappoose Industrial Airpark,San Luis,USA,KSPB,America/Los_Angeles,45.77099991,-122.8619995
3617,St Petersburg Clearwater International Airport,St. Petersburg,USA,KPIE,America/New_York,27.91020012,-82.68740082
3618,Menominee Marinette Twin County Airport,Macon,USA,KMNM,America/Chicago,45.12670135,-87.63839722
3619,Lone Star Executive Airport,Conroe,USA,KCXO,America/Chicago,30.35180092,-95.41449738
3620,Deadhorse Airport,Deadhorse,USA,PASC,America/Anchorage,70.19470215,-148.4649963
3621,San Antonio International Airport,San Antonio,USA,KSAT,America/Chicago,29.53370094,-98.46980286
3622,Greater Rochester International Airport,Rochester,USA,KROC,America/New_York,43.1189003,-77.67240143
3623,Patrick Air Force Base,Coco Beach,USA,KCOF,America/New_York,28.23489952,-80.61009979
3624,Teterboro Airport,Teterboro,USA,KTEB,America/New_York,40.85010147,-74.06079865
3625,Ellsworth Air Force Base,Rapid City,USA,KRCA,America/Denver,44.14500046,-103.1039963
3626,Raleigh Durham International Airport,Raleigh-durham,USA,KRDU,America/New_York,35.87760162,-78.78749847
3627,James M Cox Dayton International Airport,Dayton,USA,KDAY,America/New_York,39.90240097,-84.2193985
3628,Kenai Municipal Airport,Kenai,USA,PAEN,America/Anchorage,60.57310104,-151.2449951
3629,Mc Alester Regional Airport,Mcalester,USA,KMLC,America/Chicago,34.88240051,-95.78350067
3630,Niagara Falls International Airport,Niagara Falls,USA,KIAG,America/New_York,43.1072998,-78.94619751
3631,Coulter Field,Bryan,USA,KCFD,America/Chicago,30.71570015,-96.33139801
3632,Wright Aaf (Fort Stewart)/Midcoast Regional Airport,Wright,USA,KLHW,America/New_York,31.88909912,-81.56230164
3633,Newport News Williamsburg International Airport,Newport News,USA,KPHF,America/New_York,37.13190079,-76.49299622
3634,Esler Regional Airport,Alexandria,USA,KESF,America/Chicago,31.39489937,-92.29579926
3635,Altus Air Force Base,Altus,USA,KLTS,America/Chicago,34.667099,-99.26670074
3636,Tucson International Airport,Tucson,USA,KTUS,America/Phoenix,32.11610031,-110.9410019
3637,Minot Air Force Base,Minot,USA,KMIB,America/Chicago,48.41559982,-101.3580017
3638,Beale Air Force Base,Marysville,USA,KBAB,America/Los_Angeles,39.13610077,-121.4369965
3639,Greater Kankakee Airport,Kankakee,USA,KIKK,America/Chicago,41.07139969,-87.84629822
3640,Seymour Johnson Air Force Base,Goldsboro,USA,KGSB,America/New_York,35.33940125,-77.96060181
3641,Theodore Francis Green State Airport,Providence,USA,KPVD,America/New_York,41.73260117,-71.42040253
3642,Salisbury Ocean City Wicomico Regional Airport,Salisbury,USA,KSBY,America/New_York,38.34049988,-75.51029968
3643,Rancho Murieta Airport,Rancho Murieta,USA,KRIU,America/Los_Angeles,38.48680115,-121.1029968
3644,Bob Hope Airport,Burbank,USA,KBUR,America/Los_Angeles,34.20069885,-118.3590012
3645,Detroit Metropolitan Wayne County Airport,Detroit,USA,KDTW,America/New_York,42.21239853,-83.35340118
3646,Tampa International Airport,Tampa,USA,KTPA,America/New_York,27.97550011,-82.53320313
3647,Pembina Municipal Airport,Pembina,USA,KPMB,America/Chicago,48.94250107,-97.24079895
3648,Polk Army Air Field,Fort Polk,USA,KPOE,America/Chicago,31.0447998,-93.1917038
3649,Eielson Air Force Base,Fairbanks,USA,PAEI,America/Anchorage,64.66570282,-147.102005
3650,Range Regional Airport,Hibbing,USA,KHIB,America/Chicago,47.38660049,-92.83899689
3651,Angelina County Airport,Lufkin,USA,KLFK,America/Chicago,31.23399925,-94.75
3652,Midland International Airport,Midland,USA,KMAF,America/Chicago,31.94249916,-102.2020035
3653,Austin Straubel International Airport,Green Bay,USA,KGRB,America/Chicago,44.48509979,-88.12960052
3654,Ardmore Municipal Airport,Ardmore,USA,KADM,America/Chicago,34.30301,-97.0196342
3655,Mc Guire Air Force Base,Wrightstown,USA,KWRI,America/New_York,40.0155983,-74.59169769
3656,Cherry Point MCAS /Cunningham Field/,Cherry Point,USA,KNKT,America/New_York,34.90090179,-76.88069916
3657,Emanuel County Airport,Santa Barbara,USA,KSBO,America/New_York,32.60910034,-82.36990356
3658,Augusta Regional At Bush Field,Bush Field,USA,KAGS,America/New_York,33.36989975,-81.96450043
3659,Sloulin Field International Airport,Williston,USA,KISN,America/Chicago,48.17789841,-103.6419983
3660,Bill & Hillary Clinton National Airport/Adams Field,Little Rock,USA,KLIT,America/Chicago,34.72940063,-92.22429657
3661,Stewart International Airport,Newburgh,USA,KSWF,America/New_York,41.5041008,-74.10479736
3662,Baudette International Airport,Baudette,USA,KBDE,America/Chicago,48.72840118,-94.61219788
3663,Sacramento Executive Airport,Sacramento,USA,KSAC,America/Los_Angeles,38.51250076,-121.4929962
3664,Homer Airport,Homer,USA,PAHO,America/Anchorage,59.64559937,-151.477005
3665,Waynesville-St. Robert Regional Forney field,Fort Leonardwood,USA,KTBN,America/Chicago,37.74160004,-92.14070129
3666,Dobbins Air Reserve Base,Marietta,USA,KMGE,America/New_York,33.91540146,-84.51629639
3667,Fairchild Air Force Base,Spokane,USA,KSKA,America/Los_Angeles,47.61510086,-117.6559982
3668,Roscommon County - Blodgett Memorial Airport,Houghton Lake,USA,KHTL,America/New_York,44.359798,-84.671095
3669,Tyndall Air Force Base,Panama City,USA,KPAM,America/Chicago,30.06959915,-85.57540131
3670,Dallas Fort Worth International Airport,Dallas-Fort Worth,USA,KDFW,America/Chicago,32.89680099,-97.03800201
3671,Melbourne International Airport,Melbourne,USA,KMLB,America/New_York,28.10280037,-80.64530182
3672,McChord Air Force Base,Tacoma,USA,KTCM,America/Los_Angeles,47.13769913,-122.4759979
3673,Austin Bergstrom International Airport,Austin,USA,KAUS,America/Chicago,30.19449997,-97.66989899
3674,Rickenbacker International Airport,Columbus,USA,KLCK,America/New_York,39.813801,-82.927803
3675,Sawyer International Airport,Gwinn,USA,KSAW,America/New_York,46.35359955,-87.395401
3676,McGhee Tyson Airport,Knoxville,USA,KTYS,America/New_York,35.81100082,-83.9940033
3677,Hood Army Air Field,Fort Hood,USA,KHLR,America/Chicago,31.13870049,-97.71450043
3678,Lambert St Louis International Airport,St. Louis,USA,KSTL,America/Chicago,38.74869919,-90.37000275
3679,Millville Municipal Airport,Millville,USA,KMIV,America/New_York,39.36780167,-75.07219696
3680,Sheppard Air Force Base-Wichita Falls Municipal Airport,Wichita Falls,USA,KSPS,America/Chicago,33.98880005,-98.49189758
3681,Cincinnati Municipal Airport Lunken Field,Cincinnati,USA,KLUK,America/New_York,39.10329819,-84.41860199
3682,Hartsfield Jackson Atlanta International Airport,Atlanta,USA,KATL,America/New_York,33.63669968,-84.42810059
3683,Castle Airport,Merced,USA,KMER,America/Los_Angeles,37.38050079,-120.5680008
3684,Mc Clellan Airfield,Sacramento,USA,KMCC,America/Los_Angeles,38.66759872,-121.401001
3685,Gerald R. Ford International Airport,Grand Rapids,USA,KGRR,America/New_York,42.88079834,-85.52279663
3686,Winkler County Airport,Wink,USA,KINK,America/Chicago,31.77960014,-103.2009964
3687,Fresno Yosemite International Airport,Fresno,USA,KFAT,America/Los_Angeles,36.77619934,-119.7180023
3688,Vero Beach Municipal Airport,Vero Beach,USA,KVRB,America/New_York,27.65559959,-80.41790009
3689,Imperial County Airport,Imperial,USA,KIPL,America/Los_Angeles,32.83420181,-115.5790024
3690,Nashville International Airport,Nashville,USA,KBNA,America/Chicago,36.12450027,-86.67819977
3691,Laredo International Airport,Laredo,USA,KLRD,America/Chicago,27.54380035,-99.46160126
3692,Elmendorf Air Force Base,Anchorage,USA,PAED,America/Anchorage,61.25099945,-149.8070068
3693,Ralph Wien Memorial Airport,Kotzebue,USA,PAOT,America/Anchorage,66.88469696,-162.598999
3694,Altoona Blair County Airport,Altoona,USA,KAOO,America/New_York,40.29639816,-78.31999969
3695,Dyess Air Force Base,Abilene,USA,KDYS,America/Chicago,32.42079926,-99.854599
3696,South Arkansas Regional At Goodwin Field,El Dorado,USA,KELD,America/Chicago,33.22100067,-92.81330109
3697,La Guardia Airport,New York,USA,KLGA,America/New_York,40.77719879,-73.87259674
3698,Tallahassee Regional Airport,Tallahassee,USA,KTLH,America/New_York,30.39649963,-84.35030365
3699,Dupage Airport,West Chicago,USA,KDPA,America/Chicago,41.90779877,-88.24859619
3700,Waco Regional Airport,Waco,USA,KACT,America/Chicago,31.61129951,-97.23049927
3701,Augusta State Airport,Augusta,USA,KAUG,America/New_York,44.3205986,-69.79730225
3702,Hillsboro Municipal Airport,Hillsboro,USA,KINJ,America/Chicago,32.08349991,-97.09719849
3704,Mc Kellar Sipes Regional Airport,Jackson,USA,KMKL,America/Chicago,35.59989929,-88.91560364
3705,Molokai Airport,Molokai,USA,PHMK,Pacific/Honolulu,21.1529007,-157.095993
3706,Godman Army Air Field,Fort Knox,USA,KFTK,America/New_York,37.90710068,-85.9720993
3707,New River MCAS /H/ /Mccutcheon Fld/ Airport,Jacksonville,USA,KNCA,America/New_York,34.70840073,-77.43969727
3708,San Angelo Regional Mathis Field,San Angelo,USA,KSJT,America/Chicago,31.35770035,-100.4960022
3709,Calexico International Airport,Calexico,USA,KCXL,America/Los_Angeles,32.66949844,-115.5130005
3710,Chico Municipal Airport,Chico,USA,KCIC,America/Los_Angeles,39.79539871,-121.8580017
3711,Burlington International Airport,Burlington,USA,KBTV,America/New_York,44.47190094,-73.15329742
3712,Jacksonville International Airport,Jacksonville,USA,KJAX,America/New_York,30.49410057,-81.68789673
3713,Durango La Plata County Airport,Durango,USA,KDRO,America/Denver,37.1515007,-107.7539978
3714,Washington Dulles International Airport,Washington,USA,KIAD,America/New_York,38.94449997,-77.45580292
3715,Easterwood Field,College Station,USA,KCLL,America/Chicago,30.58860016,-96.36380005
3716,Felts Field,Spokane,USA,KSFF,America/Los_Angeles,47.68280029,-117.322998
3717,General Mitchell International Airport,Milwaukee,USA,KMKE,America/Chicago,42.94720078,-87.89659882
3718,Abilene Regional Airport,Abilene,USA,KABI,America/Chicago,32.41130066,-99.68190002
3719,Columbia Regional Airport,Columbia,USA,KCOU,America/Chicago,38.81809998,-92.21959686
3720,Portland International Airport,Portland,USA,KPDX,America/Los_Angeles,45.58869934,-122.5979996
3721,Dade Collier Training and Transition Airport,Miami,USA,KTNT,America/New_York,25.86179924,-80.89700317
3722,Palm Beach International Airport,West Palm Beach,USA,KPBI,America/New_York,26.68320084,-80.09559631
3723,Fort Worth Meacham International Airport,Fort Worth,USA,KFTW,America/Chicago,32.81980133,-97.36239624
3724,Ogdensburg International Airport,Ogdensburg,USA,KOGS,America/New_York,44.68190002,-75.46549988
3726,Boeing Field King County International Airport,Seattle,USA,KBFI,America/Los_Angeles,47.52999878,-122.302002
3727,Lackland Air Force Base,San Antonio,USA,KSKF,America/Chicago,29.38419914,-98.58110046
3728,Honolulu International Airport,Honolulu,USA,PHNL,Pacific/Honolulu,21.31870079,-157.9219971
3729,Des Moines International Airport,Des Moines,USA,KDSM,America/Chicago,41.5340004,-93.6631012
3730,Coastal Carolina Regional Airport,New Bern,USA,KEWN,America/New_York,35.07300186,-77.04290009
3731,San Diego International Airport,San Diego,USA,KSAN,America/Los_Angeles,32.73360062,-117.1900024
3732,Monroe Regional Airport,Monroe,USA,KMLU,America/Chicago,32.51089859,-92.03769684
3733,Shaw Air Force Base,Sumter,USA,KSSC,America/New_York,33.97269821,-80.47059631
3734,Ontario International Airport,Ontario,USA,KONT,America/Los_Angeles,34.05599976,-117.6009979
3735,Majors Airport,Greenvile,USA,KGVT,America/Chicago,33.06779861,-96.06529999
3736,Roswell International Air Center Airport,Roswell,USA,KROW,America/Denver,33.30160141,-104.5309982
3737,Coleman A. Young Municipal Airport,Detroit,USA,KDET,America/New_York,42.40919876,-83.00990295
3738,Brownsville South Padre Island International Airport,Brownsville,USA,KBRO,America/Chicago,25.90679932,-97.42590332
3739,Dothan Regional Airport,Dothan,USA,KDHN,America/Chicago,31.32130051,-85.44960022
3740,Cape May County Airport,Wildwood,USA,KWWD,America/New_York,39.00849915,-74.90830231
3742,Selfridge Angb Airport,Mount Clemens,USA,KMTC,America/New_York,42.60829926,-82.83550262
3743,Four Corners Regional Airport,Farmington,USA,KFMN,America/Denver,36.74119949,-108.2300034
3744,Corpus Christi International Airport,Corpus Christi,USA,KCRP,America/Chicago,27.77039909,-97.50119781
3745,Syracuse Hancock International Airport,Syracuse,USA,KSYR,America/New_York,43.11119843,-76.10630035
3746,Naval Air Station Key West/Boca Chica Field,Key West,USA,KNQX,America/New_York,24.57579994,-81.68890381
3747,Chicago Midway International Airport,Chicago,USA,KMDW,America/Chicago,41.7859993,-87.75240326
3748,Norman Y. Mineta San Jose International Airport,San Jose,USA,KSJC,America/Los_Angeles,37.36259842,-121.9290009
3749,Lea County Regional Airport,Hobbs,USA,KHOB,America/Denver,32.6875,-103.2170029
3750,Northeast Philadelphia Airport,Philadelphia,USA,KPNE,America/New_York,40.08190155,-75.01059723
3751,Denver International Airport,Denver,USA,KDEN,America/Denver,39.86169815,-104.6729965
3752,Philadelphia International Airport,Philadelphia,USA,KPHL,America/New_York,39.87189865,-75.2410965
3753,Sioux Gateway Col. Bud Day Field,Sioux City,USA,KSUX,America/Chicago,42.40259933,-96.38439941
3754,Middle Georgia Regional Airport,Macon,USA,KMCN,America/New_York,32.69279861,-83.64920044
3755,Truth Or Consequences Municipal Airport,Truth Or Consequences,USA,KTCS,America/Denver,33.23690033,-107.2720032
3756,Palmdale Regional/USAF Plant 42 Airport,Palmdale,USA,KPMD,America/Los_Angeles,34.62939835,-118.0849991
3757,Randolph Air Force Base,San Antonio,USA,KRND,America/Chicago,29.52969933,-98.27890015
3758,El Centro Naf Airport,El Centro,USA,KNJK,America/Los_Angeles,32.82920074,-115.6719971
3759,Port Columbus International Airport,Columbus,USA,KCMH,America/New_York,39.9980011,-82.89189911
3760,Drake Field,Fayetteville,USA,KFYV,America/Chicago,36.00510025,-94.17009735
3761,Henry Post Army Air Field (Fort Sill),Fort Sill,USA,KFSI,America/Chicago,34.64979935,-98.40219879
3762,Princeton Municipal Airport,Princeton,USA,KPNM,America/Chicago,45.55989838,-93.60820007
3763,Wright-Patterson Air Force Base,Dayton,USA,KFFO,America/New_York,39.8260994,-84.0483017
3764,Edward G. Pitka Sr Airport,Galena,USA,PAGA,America/Anchorage,64.73619843,-156.9369965
3765,Chandler Municipal Airport,Chandler,USA,KCHD,America/Phoenix,33.2691,-111.810997
3766,Mineral Wells Airport,Mineral Wells,USA,KMWL,America/Chicago,32.78160095,-98.06020355
3767,Mc Connell Air Force Base,Wichita,USA,KIAB,America/Chicago,37.62189865,-97.26820374
3768,New Orleans NAS JRB/Alvin Callender Field,New Orleans,USA,KNBG,America/Chicago,29.82530022,-90.03500366
3769,Beaufort County Airport,Beaufort,USA,KARW,America/New_York,32.41220093,-80.63439941
3770,Texarkana Regional Webb Field,Texarkana,USA,KTXK,America/Chicago,33.45370102,-93.99099731
3771,Plattsburgh International Airport,Plattsburgh,USA,KPBG,America/New_York,44.65090179,-73.4681015
3772,Phillips Army Air Field,Aberdeen,USA,KAPG,America/New_York,39.466202,-76.1688
3773,Tucumcari Municipal Airport,Tucumcari,USA,KTCC,America/Denver,35.18280029,-103.6029968
3774,Ted Stevens Anchorage International Airport,Anchorage,USA,PANC,America/Anchorage,61.17440033,-149.9960022
3775,Robert Gray  Army Air Field Airport,Killeen,USA,KGRK,America/Chicago,31.06719971,-97.8289032
3776,Black Rock Airport,Zuni Pueblo,USA,KZUN,America/Denver,35.08319855,-108.7919998
3777,Bellingham International Airport,Bellingham,USA,KBLI,America/Los_Angeles,48.7928009,-122.538002
3778,Millington Regional Jetport Airport,Millington,USA,KNQA,America/Chicago,35.3567009,-89.87030029
3779,Elkins-Randolph Co-Jennings Randolph Field,Elkins,USA,KEKN,America/New_York,38.88940048,-79.85710144
3780,Hartford Brainard Airport,Hartford,USA,KHFD,America/New_York,41.73669815,-72.6493988
3781,North Central State Airport,Smithfield,USA,KSFZ,America/New_York,41.92079926,-71.49140167
3782,Mobile Regional Airport,Mobile,USA,KMOB,America/Chicago,30.69120026,-88.24279785
3783,Moffett Federal Airfield,Mountain View,USA,KNUQ,America/Los_Angeles,37.41609955,-122.0490036
3784,Santa Fe Municipal Airport,Santa Fe,USA,KSAF,America/Denver,35.61709976,-106.0889969
3785,Barking Sands Airport,Barking Sands,USA,PHBK,Pacific/Honolulu,22.02280045,-159.7850037
3786,Beauregard Regional Airport,Deridder,USA,KDRI,America/Chicago,30.83169937,-93.33989716
3787,Bradshaw Army Airfield,Bradshaw Field,USA,PHSF,Pacific/Honolulu,19.76009941,-155.5540009
3788,Nogales International Airport,Nogales,USA,KOLS,America/Phoenix,31.41769981,-110.8479996
3789,Mac Dill Air Force Base,Tampa,USA,KMCF,America/New_York,27.84930038,-82.52120209
3790,Scott AFB/Midamerica Airport,Belleville,USA,KBLV,America/Chicago,38.5452,-89.835197
3791,Opa-locka Executive Airport,Miami,USA,KOPF,America/New_York,25.90699959,-80.27839661
3792,Del Rio International Airport,Del Rio,USA,KDRT,America/Chicago,29.37420082,-100.927002
3793,Southwest Florida International Airport,Fort Myers,USA,KRSW,America/New_York,26.53619957,-81.75520325
3794,King Salmon Airport,King Salmon,USA,PAKN,America/Anchorage,58.67679977,-156.6490021
3795,Muir Army Air Field (Fort Indiantown Gap) Airport,Muir,USA,KMUI,America/New_York,40.43479919,-76.56939697
3796,Kapalua Airport,Lahania-kapalua,USA,PHJH,Pacific/Honolulu,20.96290016,-156.6730042
3797,John F Kennedy International Airport,New York,USA,KJFK,America/New_York,40.63980103,-73.77890015
3798,Homestead ARB Airport,Homestead,USA,KHST,America/New_York,25.48859978,-80.38359833
3799,Riverside Municipal Airport,Riverside,USA,KRAL,America/Los_Angeles,33.95190048,-117.4449997
3800,Sherman Army Air Field,Fort Leavenworth,USA,KFLV,America/Chicago,39.36830139,-94.91470337
3801,Wallops Flight Facility Airport,Wallops Island,USA,KWAL,America/New_York,37.94020081,-75.46640015
3802,Holloman Air Force Base,Alamogordo,USA,KHMN,America/Denver,32.85250092,-106.1070023
3803,Willow Grove Naval Air Station/Joint Reserve Base,Willow Grove,USA,KNXX,America/New_York,40.19979858,-75.14820099
3804,Cheyenne Regional Jerry Olson Field,Cheyenne,USA,KCYS,America/Denver,41.15570068,-104.8119965
3805,Stockton Metropolitan Airport,Stockton,USA,KSCK,America/Los_Angeles,37.89419937,-121.237999
3806,Charleston Air Force Base-International Airport,Charleston,USA,KCHS,America/New_York,32.89860153,-80.04049683
3807,Reno Tahoe International Airport,Reno,USA,KRNO,America/Los_Angeles,39.49909973,-119.7679977
3808,Ketchikan International Airport,Ketchikan,USA,PAKT,America/Anchorage,55.35559845,-131.7140045
3809,Willow Run Airport,Detroit,USA,KYIP,America/New_York,42.23789978,-83.53040314
3810,Vandenberg Air Force Base,Lompoc,USA,KVBG,America/Los_Angeles,34.73730087,-120.5839996
3811,Birmingham-Shuttlesworth International Airport,Birmingham,USA,KBHM,America/Chicago,33.56290054,-86.75350189
3812,Lakehurst Maxfield Field Airport,Lakehurst,USA,KNEL,America/New_York,40.03329849,-74.353302
3814,Nellis Air Force Base,Las Vegas,USA,KLSV,America/Los_Angeles,36.23619843,-115.0339966
3815,March ARB Airport,Riverside,USA,KRIV,America/Los_Angeles,33.88069916,-117.2590027
3816,Modesto City Co-Harry Sham Field,Modesto,USA,KMOD,America/Los_Angeles,37.62580109,-120.9540024
3817,Sacramento International Airport,Sacramento,USA,KSMF,America/Los_Angeles,38.69540024,-121.5910034
3818,Waukegan National Airport,Chicago,USA,KUGN,America/Chicago,42.42219925,-87.86789703
3819,City of Colorado Springs Municipal Airport,Colorado Springs,USA,KCOS,America/Denver,38.80580139,-104.7009964
3820,Buffalo Niagara International Airport,Buffalo,USA,KBUF,America/New_York,42.94049835,-78.73220062
3821,Griffing Sandusky Airport,Sandusky,USA,KSKY,America/New_York,41.4333992,-82.65229797
3822,Snohomish County (Paine Field) Airport,Everett,USA,KPAE,America/Los_Angeles,47.90629959,-122.2819977
3823,Mountain Home Air Force Base,Mountain Home,USA,KMUO,America/Denver,43.043598,-115.872002
3824,Cedar City Regional Airport,Cedar City,USA,KCDC,America/Denver,37.70100021,-113.098999
3825,Bradley International Airport,Windsor Locks,USA,KBDL,America/New_York,41.93889999,-72.68319702
3826,Mc Allen Miller International Airport,Mcallen,USA,KMFE,America/Chicago,26.17580032,-98.23860168
3827,Norfolk Ns (Chambers Fld) Airport,Norfolk,USA,KNGU,America/New_York,36.93759918,-76.28929901
3828,Westover ARB/Metropolitan Airport,Chicopee Falls,USA,KCEF,America/New_York,42.19400024,-72.53479767
3829,Lubbock Preston Smith International Airport,Lubbock,USA,KLBB,America/Chicago,33.66360092,-101.822998
3830,Chicago O'Hare International Airport,Chicago,USA,KORD,America/Chicago,41.97859955,-87.90480042
3831,Boca Raton Airport,Boca Raton,USA,KBCT,America/New_York,26.37849998,-80.10769653
3832,Fairbanks International Airport,Fairbanks,USA,PAFA,America/Anchorage,64.81510162,-147.8560028
3833,Quantico MCAF /Turner field,Quantico,USA,KNYG,America/New_York,38.50170135,-77.30529785
3834,Cannon Air Force Base,Clovis,USA,KCVS,America/Denver,34.38280106,-103.3219986
3835,Kaneohe Bay MCAS (Marion E. Carl Field) Airport,Kaneohe Bay,USA,PHNG,Pacific/Honolulu,21.45050049,-157.7680054
3836,Offutt Air Force Base,Omaha,USA,KOFF,America/Chicago,41.11830139,-95.91249847
3837,Gulkana Airport,Gulkana,USA,PAGK,America/Anchorage,62.1548996,-145.4570007
3838,Watertown International Airport,Watertown,USA,KART,America/New_York,43.9919014,-76.021698
3839,Palm Springs International Airport,Palm Springs,USA,KPSP,America/Los_Angeles,33.82970047,-116.5070038
3840,Rick Husband Amarillo International Airport,Amarillo,USA,KAMA,America/Chicago,35.2193985,-101.7060013
3841,Fort Dodge Regional Airport,Fort Dodge,USA,KFOD,America/Chicago,42.55149841,-94.19259644
3842,Barksdale Air Force Base,Shreveport,USA,KBAD,America/Chicago,32.50180054,-93.66269684
3843,Topeka Regional Airport - Forbes Field,Topeka,USA,KFOE,America/Chicago,38.95090103,-95.66359711
3844,Cotulla-La Salle County Airport,Cotulla,USA,KCOT,America/Chicago,28.45669937,-99.22029877
3845,Wilmington International Airport,Wilmington,USA,KILM,America/New_York,34.27059937,-77.90260315
3846,"Baton Rouge Metropolitan, Ryan Field",Baton Rouge,USA,KBTR,America/Chicago,30.53319931,-91.14959717
3848,Tyler Pounds Regional Airport,Tyler,USA,KTYR,America/Chicago,32.35409927,-95.40239716
3849,Baltimore/Washington International Thurgood Marshall Airport,Baltimore,USA,KBWI,America/New_York,39.17539978,-76.66829681
3850,Hobart Regional Airport,Hobart,USA,KHBR,America/Chicago,34.991317,-99.051313
3851,Lanai Airport,Lanai,USA,PHNY,Pacific/Honolulu,20.78560066,-156.951004
3852,Alexandria International Airport,Alexandria,USA,KAEX,America/Chicago,31.32740021,-92.54979706
3853,Condron Army Air Field,White Sands,USA,KWSD,America/Denver,32.34149933,-106.4029999
3854,Cold Bay Airport,Cold Bay,USA,PACD,America/Anchorage,55.20610046,-162.7250061
3855,Tulsa International Airport,Tulsa,USA,KTUL,America/Chicago,36.19839859,-95.88809967
3856,Sitka Rocky Gutierrez Airport,Sitka,USA,PASI,America/Anchorage,57.04710007,-135.3619995
3857,Long Island Mac Arthur Airport,Islip,USA,KISP,America/New_York,40.79520035,-73.10019684
3858,Minneapolis-St Paul International/Wold-Chamberlain Airport,Minneapolis,USA,KMSP,America/Chicago,44.88199997,-93.22180176
3859,New Castle Airport,Wilmington,USA,KILG,America/New_York,39.67869949,-75.60649872
3860,Unalaska Airport,Unalaska,USA,PADU,America/Anchorage,53.90010071,-166.5440063
3861,Louis Armstrong New Orleans International Airport,New Orleans,USA,KMSY,America/Chicago,29.99340057,-90.25800323
3862,Portland International Jetport Airport,Portland,USA,KPWM,America/New_York,43.64619827,-70.30930328
3863,Will Rogers World Airport,Oklahoma City,USA,KOKC,America/Chicago,35.39310074,-97.60070038
3864,Albany International Airport,Albany,USA,KALB,America/New_York,42.74829865,-73.80169678
3865,Valdez Pioneer Field,Valdez,USA,PAVD,America/Anchorage,61.13389969,-146.2480011
3866,Langley Air Force Base,Hampton,USA,KLFI,America/New_York,37.082901,-76.36049652
3867,John Wayne Airport-Orange County Airport,Santa Ana,USA,KSNA,America/Los_Angeles,33.67570114,-117.8679962
3868,Columbus Air Force Base,Colombus,USA,KCBM,America/Chicago,33.64379883,-88.44380188
3869,Kendall-Tamiami Executive Airport,Kendall-tamiami,USA,KTMB,America/New_York,25.64789963,-80.43280029
3870,Oceana NAS,Oceana,USA,KNTU,America/New_York,36.8207016,-76.03350067
3871,Grissom Air Reserve Base,Peru,USA,KGUS,America/New_York,40.64810181,-86.15209961
3872,Casper-Natrona County International Airport,Casper,USA,KCPR,America/Denver,42.90800095,-106.4639969
3873,Destin-Ft Walton Beach Airport,Valparaiso,USA,KVPS,America/Chicago,30.4832,-86.525398
3874,Craig Field,Selma,USA,KSEM,America/Chicago,32.34389877,-86.9878006
3875,Key West International Airport,Key West,USA,KEYW,America/New_York,24.55610085,-81.75959778
3876,Charlotte Douglas International Airport,Charlotte,USA,KCLT,America/New_York,35.2140007,-80.94309998
3877,McCarran International Airport,Las Vegas,USA,KLAS,America/Los_Angeles,36.08010101,-115.1520004
3878,Orlando International Airport,Orlando,USA,KMCO,America/New_York,28.42939949,-81.30899811
3879,Florence Regional Airport,Florence,USA,KFLO,America/New_York,34.1853981,-79.72389984
3880,Great Falls International Airport,Great Falls,USA,KGTF,America/Denver,47.48199844,-111.3710022
3881,Youngstown Warren Regional Airport,Youngstown,USA,KYNG,America/New_York,41.26070023,-80.67910004
3882,Ladd AAF Airfield,Fort Wainwright,USA,PAFB,America/Anchorage,64.83750153,-147.6139984
3883,Mc Minnville Municipal Airport,Mackminnville,USA,KMMV,America/Los_Angeles,45.19440079,-123.1360016
3884,Robins Air Force Base,Macon,USA,KWRB,America/New_York,32.64009857,-83.59190369
3944,Pullman Moscow Regional Airport,Pullman,USA,KPUW,America/Los_Angeles,46.7439,-117.110001
3945,Lewiston Nez Perce County Airport,Lewiston,USA,KLWS,America/Los_Angeles,46.37450027,-117.0149994
3946,Elmira Corning Regional Airport,Elmira,USA,KELM,America/New_York,42.15990067,-76.89160156
3947,Ithaca Tompkins Regional Airport,Ithaca,USA,KITH,America/New_York,42.49100113,-76.45839691
3948,Monterey Peninsula Airport,Monterey,USA,KMRY,America/Los_Angeles,36.5870018,-121.8430023
3949,Santa Barbara Municipal Airport,Santa Barbara,USA,KSBA,America/Los_Angeles,34.42620087,-119.8399963
3950,Daytona Beach International Airport,Daytona Beach,USA,KDAB,America/New_York,29.179899,-81.058098
4004,Talkeetna Airport,Talkeetna,USA,PATK,America/Anchorage,62.32049942,-150.0939941
4006,Tweed New Haven Airport,New Haven,USA,KHVN,America/New_York,41.26369858,-72.88680267
4007,Asheville Regional Airport,Asheville,USA,KAVL,America/New_York,35.43619919,-82.54180145
4008,Piedmont Triad International Airport,Greensboro,USA,KGSO,America/New_York,36.09780121,-79.93730164
4009,Joe Foss Field Airport,Sioux Falls,USA,KFSD,America/Chicago,43.58200073,-96.74189758
4011,Manchester Airport,Manchester NH,USA,KMHT,America/New_York,42.93259811,-71.43569946
4012,Naples Municipal Airport,Naples,USA,KAPF,America/New_York,26.15259933,-81.77529907
4014,Louisville International Standiford Field,Louisville,USA,KSDF,America/New_York,38.1744,-85.736
4015,Charlottesville Albemarle Airport,Charlottesville VA,USA,KCHO,America/New_York,38.1385994,-78.45290375
4016,Roanoke–Blacksburg Regional Airport,Roanoke VA,USA,KROA,America/New_York,37.32550049,-79.97540283
4017,Blue Grass Airport,Lexington KY,USA,KLEX,America/New_York,38.03649902,-84.60590363
4018,Evansville Regional Airport,Evansville,USA,KEVV,America/Chicago,38.03699875,-87.53240204
4019,Albuquerque International Sunport Airport,Albuquerque,USA,KABQ,America/Denver,35.04019928,-106.6090012
4020,Gallatin Field,Bozeman,USA,KBZN,America/Denver,45.77750015,-111.1529999
4021,Billings Logan International Airport,Billings,USA,KBIL,America/Denver,45.80770111,-108.5429993
4022,Bert Mooney Airport,Butte,USA,KBTM,America/Denver,45.95479965,-112.4970016
4023,Cherry Capital Airport,Traverse City,USA,KTVC,America/New_York,44.74140167,-85.5821991
4025,Hancock County-Bar Harbor Airport,Bar Harbor,USA,KBHB,America/New_York,44.45000076,-68.3615036
4026,Knox County Regional Airport,Rockland,USA,KRKD,America/New_York,44.06010056,-69.09919739
4027,Jackson Hole Airport,Jacksn Hole,USA,KJAC,America/Denver,43.6072998,-110.737999
4028,Chicago Rockford International Airport,Rockford,USA,KRFD,America/Chicago,42.19540024,-89.09719849
4034,Greenville Spartanburg International Airport,Greenville,USA,KGSP,America/New_York,34.89569855,-82.21890259
4037,Central Illinois Regional Airport at Bloomington-Normal,Bloomington,USA,KBMI,America/Chicago,40.47710037,-88.91590118
4038,Gulfport Biloxi International Airport,Gulfport,USA,KGPT,America/Chicago,30.40730095,-89.07009888
4039,Kalamazoo Battle Creek International Airport,Kalamazoo,USA,KAZO,America/New_York,42.23490143,-85.55210114
4040,Toledo Express Airport,Toledo,USA,KTOL,America/New_York,41.58679962,-83.80780029
4041,Fort Wayne International Airport,Fort Wayne,USA,KFWA,America/New_York,40.97850037,-85.19509888
4042,Decatur Airport,Decatur,USA,KDEC,America/Chicago,39.83459854,-88.86569977
4043,The Eastern Iowa Airport,Cedar Rapids,USA,KCID,America/Chicago,41.88470078,-91.71080017
4044,La Crosse Municipal Airport,La Crosse,USA,KLSE,America/Chicago,43.879002,-91.256699
4045,Central Wisconsin Airport,Wassau,USA,KCWA,America/Chicago,44.77759933,-89.66680145
4046,General Wayne A. Downing Peoria International Airport,Peoria,USA,KPIA,America/Chicago,40.66419983,-89.69329834
4047,Appleton International Airport,Appleton,USA,KATW,America/Chicago,44.2580986,-88.51909637
4048,Rochester International Airport,Rochester,USA,KRST,America/Chicago,43.90829849,-92.5
4049,University of Illinois Willard Airport,Champaign,USA,KCMI,America/Chicago,40.03919983,-88.27809906
4050,Manhattan Regional Airport,Manhattan,USA,KMHK,America/Chicago,39.14099884,-96.67079926
4058,Venango Regional Airport,Franklin,USA,KFKL,America/New_York,41.37789917,-79.86039734
4063,Grand Junction Regional Airport,Grand Junction,USA,KGJT,America/Denver,39.12239838,-108.5270004
4064,St George Municipal Airport,Saint George,USA,KSGU,America/Denver,37.03638889,-113.5103056
4065,David Wayne Hooks Memorial Airport,Houston,USA,KDWH,America/Chicago,30.0618,-95.55280304
4066,Port O'Connor Private Airport,Port O\\'Connor,USA,XS46,America/Chicago,28.42970085,-96.44439697
4067,Sarasota Bradenton International Airport,Sarasota,USA,KSRQ,America/New_York,27.39539909,-82.55439758
4071,Van Nuys Airport,Van Nuys,USA,KVNY,America/Los_Angeles,34.20980072,-118.4899979
4072,Quad City International Airport,Moline,USA,KMLI,America/Chicago,41.44850159,-90.50749969
4073,Panama City-Bay Co International Airport,Panama City,USA,KPFN,America/Chicago,30.212099,-85.6828
4083,Bismarck Municipal Airport,Bismarck,USA,KBIS,America/Chicago,46.77270126,-100.7460022
4084,Telluride Regional Airport,Telluride,USA,KTEX,America/Denver,37.9538002,-107.9079971
4087,Rapid City Regional Airport,Rapid City,USA,KRAP,America/Denver,44.04529953,-103.0569992
4088,Mc Clellan-Palomar Airport,Carlsbad,USA,KCRQ,America/Los_Angeles,33.12829971,-117.2799988
4089,Bishop International Airport,Flint,USA,KFNT,America/New_York,42.9654007,-83.74359894
4098,Redding Municipal Airport,Redding,USA,KRDD,America/Los_Angeles,40.50899887,-122.2929993
4099,Mahlon Sweet Field,Eugene,USA,KEUG,America/Los_Angeles,44.12459946,-123.211998
4100,Idaho Falls Regional Airport,Idaho Falls,USA,KIDA,America/Denver,43.51459885,-112.0709991
4101,Rogue Valley International Medford Airport,Medford,USA,KMFR,America/Los_Angeles,42.37419891,-122.8730011
4103,Roberts Field,Redmond-Bend,USA,KRDM,America/Los_Angeles,44.2541008,-121.1500015
4112,Akron Canton Regional Airport,Akron,USA,KCAK,America/New_York,40.91609955,-81.44219971
4113,Huntsville International Carl T Jones Field,Huntsville,USA,KHSV,America/Chicago,34.6371994,-86.77510071
4114,Mid Ohio Valley Regional Airport,PARKERSBURG,USA,KPKB,America/New_York,39.3451004,-81.43920135
4115,Montgomery Regional (Dannelly Field) Airport,MONTGOMERY,USA,KMGM,America/Chicago,32.30059814,-86.39399719
4116,Tri Cities Regional Tn Va Airport,BRISTOL,USA,KTRI,America/New_York,36.47520065,-82.40740204
4117,Barkley Regional Airport,PADUCAH,USA,KPAH,America/Chicago,37.06079865,-88.77380371
4124,Page Municipal Airport,Page,USA,KPGA,America/Phoenix,36.92610168,-111.447998
4127,Glacier Park International Airport,Kalispell,USA,KGPI,America/Denver,48.3105011,-114.2559967
4128,MBS International Airport,Saginaw,USA,KMBS,America/New_York,43.53290176,-84.07959747
4129,Greater Binghamton/Edwin A Link field,Binghamton,USA,KBGM,America/New_York,42.20869827,-75.97979736
4136,Blythe Airport,Blythe,USA,KBLH,America/Los_Angeles,33.61920166,-114.7170029
4147,Petersburg James A Johnson Airport,Petersburg,USA,PAPG,America/Anchorage,56.80170059,-132.9450073
4167,Orlando Sanford International Airport,Sanford,USA,KSFB,America/New_York,28.77759933,-81.23750305
4169,John Murtha Johnstown Cambria County Airport,Johnstown,USA,KJST,America/New_York,40.31610107,-78.83390045
4216,Missoula International Airport,Missoula,USA,KMSO,America/Denver,46.91630173,-114.0910034
4219,Grand Canyon National Park Airport,Grand Canyon,USA,KGCN,America/Phoenix,35.95240021,-112.1470032
4220,Sugar Land Regional Airport,Sugar Land,USA,KSGR,America/Chicago,29.62229919,-95.65650177
4222,Centennial Airport,Denver,USA,KAPA,America/Denver,39.57009888,-104.848999
4223,Clovis Municipal Airport,Clovis,USA,KCVN,America/Denver,34.42509842,-103.0790024
4224,Fort Stockton Pecos County Airport,Fort Stockton,USA,KFST,America/Chicago,30.91570091,-102.9160004
4225,Las Vegas Municipal Airport,Las Vegas,USA,KLVS,America/Denver,35.65420151,-105.1419983
4226,West Houston Airport,Houston,USA,KIWS,America/Chicago,29.81819916,-95.67259979
4227,La Junta Municipal Airport,La Junta,USA,KLHX,America/Denver,38.04970169,-103.5090027
4228,Las Cruces International Airport,Las Cruces,USA,KLRU,America/Denver,32.28939819,-106.9219971
4229,Stephens County Airport,Breckenridge,USA,KBKD,America/Chicago,32.71900177,-98.89099884
4230,Draughon Miller Central Texas Regional Airport,Temple,USA,KTPL,America/Chicago,31.15250015,-97.40779877
4231,Ozona Municipal Airport,Ozona,USA,KOZA,America/Chicago,30.73530006,-101.2030029
4250,Eagle County Regional Airport,Vail,USA,KEGE,America/Denver,39.64260101,-106.9179993
4253,Cuyahoga County Airport,Richmond Heights,USA,KCGF,America/New_York,41.56510162,-81.48639679
4254,Mansfield Lahm Regional Airport,Mansfield,USA,KMFD,America/New_York,40.82139969,-82.51660156
4255,Columbus Metropolitan Airport,Columbus,USA,KCSG,America/New_York,32.5163002,-84.93890381
4256,Lawton Fort Sill Regional Airport,Lawton,USA,KLAW,America/Chicago,34.56769943,-98.41660309
4257,Fort Collins Loveland Municipal Airport,Fort Collins,USA,KFNL,America/Denver,40.4518013,-105.0110016
4261,Flagstaff Pulliam Airport,Flagstaff,USA,KFLG,America/Phoenix,35.13850021,-111.6709976
4262,Lake Tahoe Airport,South Lake Tahoe,USA,KTVL,America/Los_Angeles,38.89390182,-119.9950027
4263,Joslin Field Magic Valley Regional Airport,Twin Falls,USA,KTWF,America/Denver,42.48180008,-114.487999
4265,Martha's Vineyard Airport,Vineyard Haven MA,USA,KMVY,America/New_York,41.39310074,-70.61430359
4268,Concord Municipal Airport,Concord NH,USA,KCON,America/New_York,43.20270157,-71.50229645
4270,Groton New London Airport,Groton CT,USA,KGON,America/New_York,41.33010101,-72.04509735
4271,St Cloud Regional Airport,Saint Cloud,USA,KSTC,America/Chicago,45.54660034,-94.05989838
4273,Golden Triangle Regional Airport,Columbus Mississippi,USA,KGTR,America/Chicago,33.45029831,-88.59140015
4275,Bowerman Airport,Hoquiam,USA,KHQM,America/Los_Angeles,46.97119904,-123.9369965
4276,Erie International Tom Ridge Field,Erie,USA,KERI,America/New_York,42.08312701,-80.17386675
4278,Barnstable Municipal Boardman Polando Field,Barnstable,USA,KHYA,America/New_York,41.66930008,-70.28040314
4280,Sedona Airport,Sedona,USA,KSEZ,America/Phoenix,34.84859848,-111.788002
4284,Morgantown Municipal Walter L. Bill Hart Field,Morgantown,USA,KMGW,America/New_York,39.64289856,-79.91629791
4285,Yeager Airport,Charleston,USA,KCRW,America/New_York,38.37310028,-81.59320068
4286,Wilkes Barre Scranton International Airport,Scranton,USA,KAVP,America/New_York,41.33850098,-75.7233963
4287,Bemidji Regional Airport,Bemidji,USA,KBJI,America/Chicago,47.50939941,-94.93370056
4292,Hector International Airport,Fargo,USA,KFAR,America/Chicago,46.92070007,-96.81580353
4293,Charles B. Wheeler Downtown Airport,Kansas City,USA,KMKC,America/Chicago,39.12319946,-94.59279633
4296,Gillette Campbell County Airport,Gillette,USA,KGCC,America/Denver,44.34889984,-105.5390015
4318,University Park Airport,State College Pennsylvania,USA,KUNV,America/New_York,40.84930038,-77.84870148
4335,Key Field,Meridian,USA,KMEI,America/Chicago,32.33259964,-88.75189972
4336,Abraham Lincoln Capital Airport,Springfield,USA,KSPI,America/Chicago,39.84410095,-89.67790222
4338,Cortez Municipal Airport,Cortez,USA,KCEZ,America/Denver,37.3030014,-108.6279984
4339,Yampa Valley Airport,Hayden,USA,KHDN,America/Denver,40.48120117,-107.2180023
4340,Gallup Municipal Airport,Gallup,USA,KGUP,America/Denver,35.51110077,-108.7890015
4341,Liberal Mid-America Regional Airport,Liberal,USA,KLBL,America/Chicago,37.0442009,-100.9599991
4342,Lamar Municipal Airport,Lamar,USA,KLAA,America/Denver,38.06969833,-102.6880035
4343,Renner Field-Goodland Municipal Airport,Goodland,USA,KGLD,America/Denver,39.37060165,-101.6989975
4344,Yellowstone Regional Airport,Cody,USA,KCOD,America/Denver,44.52019882,-109.0240021
4348,Springfield Branson National Airport,Springfield,USA,KSGF,America/Chicago,37.24570084,-93.38860321
4354,Joplin Regional Airport,Joplin,USA,KJLN,America/Chicago,37.15179825,-94.49829865
4355,Lehigh Valley International Airport,Allentown,USA,KABE,America/New_York,40.65209961,-75.44080353
4356,Northwest Arkansas Regional Airport,Bentonville,USA,KXNA,America/Chicago,36.281898,-94.306801
4359,South Bend Regional Airport,South Bend,USA,KSBN,America/New_York,41.70869827,-86.31729889
4383,Smith Field,Fort Wayne IN,USA,KSMD,America/New_York,41.14339828,-85.15280151
4384,Arcata Airport,Arcata CA,USA,KACV,America/Los_Angeles,40.97809982,-124.1090012
4386,Albert J Ellis Airport,Jacksonville NC,USA,KOAJ,America/New_York,34.82920074,-77.61209869
4387,Tuscaloosa Regional Airport,Tuscaloosa AL,USA,KTCL,America/Chicago,33.22060013,-87.61139679
4388,Dubuque Regional Airport,Dubuque IA,USA,KDBQ,America/Chicago,42.40200043,-90.70950317
5714,Aberdeen Regional Airport,Aberdeen,USA,KABR,America/Chicago,45.44910049,-98.42179871
5715,Southwest Georgia Regional Airport,Albany,USA,KABY,America/New_York,31.53549957,-84.19450378
5716,Athens Ben Epps Airport,Athens,USA,KAHN,America/New_York,33.94860077,-83.32630157
5717,Alamogordo White Sands Regional Airport,Alamogordo,USA,KALM,America/Denver,32.83990097,-105.9909973
5718,Waterloo Regional Airport,Waterloo,USA,KALO,America/Chicago,42.55709839,-92.40029907
5719,Walla Walla Regional Airport,Walla Walla,USA,KALW,America/Los_Angeles,46.09489822,-118.288002
5720,Alpena County Regional Airport,Alpena,USA,KAPN,America/New_York,45.0780983,-83.56030273
5721,Watertown Regional Airport,Watertown,USA,KATY,America/Chicago,44.91400146,-97.15470123
5722,Bradford Regional Airport,Bradford,USA,KBFD,America/New_York,41.80310059,-78.64009857
5723,Western Neb. Rgnl/William B. Heilig Airport,Scottsbluff,USA,KBFF,America/Denver,41.87400055,-103.5960007
5724,Raleigh County Memorial Airport,Beckley,USA,KBKW,America/New_York,37.78730011,-81.12419891
5725,Brunswick Golden Isles Airport,Brunswick,USA,KBQK,America/New_York,31.25880051,-81.46649933
5726,Southeast Iowa Regional Airport,Burlington,USA,KBRL,America/Chicago,40.78319931,-91.12550354
5727,Jack Mc Namara Field Airport,Crescent City,USA,KCEC,America/Los_Angeles,41.78020096,-124.2369995
5728,Cape Girardeau Regional Airport,Cape Girardeau,USA,KCGI,America/Chicago,37.22529984,-89.57080078
5729,Chippewa County International Airport,Sault Ste Marie,USA,KCIU,America/New_York,46.25080109,-84.47239685
5730,North Central West Virginia Airport,Clarksburg,USA,KCKB,America/New_York,39.29660034,-80.22810364
5731,William R Fairchild International Airport,Port Angeles,USA,KCLM,America/Los_Angeles,48.12020111,-123.5
5732,Houghton County Memorial Airport,Hancock,USA,KCMX,America/New_York,47.16839981,-88.4890976
5733,Dodge City Regional Airport,Dodge City,USA,KDDC,America/Chicago,37.76340103,-99.96559906
5734,DuBois Regional Airport,Du Bois,USA,KDUJ,America/New_York,41.17829895,-78.8986969
5735,Chippewa Valley Regional Airport,Eau Claire,USA,KEAU,America/Chicago,44.86579895,-91.48429871
5736,Elko Regional Airport,Elko,USA,KEKO,America/Los_Angeles,40.82490158,-115.7919998
5737,New Bedford Regional Airport,New Bedford,USA,KEWB,America/New_York,41.67610168,-70.95690155
5738,Fayetteville Regional Grannis Field,Fayetteville,USA,KFAY,America/New_York,34.99119949,-78.88030243
5739,Wokal Field Glasgow International Airport,Glasgow,USA,KGGW,America/Denver,48.21250153,-106.6149979
5740,Central Nebraska Regional Airport,Grand Island,USA,KGRI,America/Chicago,40.96749878,-98.30960083
5741,Memorial Field,Hot Springs,USA,KHOT,America/Chicago,34.47800064,-93.09619904
5742,Tri-State/Milton J. Ferguson Field,Huntington,USA,KHTS,America/New_York,38.36669922,-82.55799866
5744,Kirksville Regional Airport,Kirksville,USA,KIRK,America/Chicago,40.09349823,-92.54489899
5745,Jamestown Regional Airport,Jamestown,USA,KJMS,America/Chicago,46.92969894,-98.67819977
5746,Laramie Regional Airport,Laramie,USA,KLAR,America/Denver,41.31209946,-105.6750031
5747,Arnold Palmer Regional Airport,Latrobe,USA,KLBE,America/New_York,40.27590179,-79.40480042
5748,North Platte Regional Airport Lee Bird Field,North Platte,USA,KLBF,America/Chicago,41.12620163,-100.6839981
5749,Lebanon Municipal Airport,Lebanon,USA,KLEB,America/New_York,43.62609863,-72.30419922
5750,Klamath Falls Airport,Klamath Falls,USA,KLMT,America/Los_Angeles,42.15610123,-121.7330017
5751,Lancaster Airport,Lancaster,USA,KLNS,America/New_York,40.12170029,-76.2960968
5752,Lewistown Municipal Airport,Lewistown,USA,KLWT,America/Denver,47.04930115,-109.4670029
5753,Lynchburg Regional Preston Glenn Field,Lynchburg,USA,KLYH,America/New_York,37.3266983,-79.20040131
5754,Muskegon County Airport,Muskegon,USA,KMKG,America/New_York,43.16949844,-86.23819733
5755,Frank Wiley Field,Miles City,USA,KMLS,America/Denver,46.4280014,-105.8860016
5756,Northwest Alabama Regional Airport,Muscle Shoals,USA,KMSL,America/Chicago,34.74530029,-87.61019897
5757,Southwest Oregon Regional Airport,North Bend,USA,KOTH,America/Los_Angeles,43.417099,-124.2460022
5758,Owensboro Daviess County Airport,Owensboro,USA,KOWB,America/Chicago,37.74010086,-87.16680145
5759,Hattiesburg Laurel Regional Airport,Hattiesburg/Laurel,USA,KPIB,America/Chicago,31.46710014,-89.33709717
5760,Pocatello Regional Airport,Pocatello,USA,KPIH,America/Denver,42.90980148,-112.5960007
5761,Pierre Regional Airport,Pierre,USA,KPIR,America/Chicago,44.38270187,-100.2860031
5762,Pellston Regional Airport of Emmet County Airport,Pellston,USA,KPLN,America/New_York,45.57089996,-84.79669952
5763,Portsmouth International at Pease Airport,Portsmouth,USA,KPSM,America/New_York,43.07789993,-70.82330322
5764,Reading Regional Carl A Spaatz Field,Reading,USA,KRDG,America/New_York,40.37850189,-75.96520233
5765,Rhinelander Oneida County Airport,Rhinelander,USA,KRHI,America/Chicago,45.63119888,-89.46749878
5766,Rock Springs Sweetwater County Airport,Rock Springs,USA,KRKS,America/Denver,41.59420013,-109.0650024
5767,Rutland - Southern Vermont Regional Airport,Rutland,USA,KRUT,America/New_York,43.52939987,-72.94960022
5768,San Luis County Regional Airport,San Luis Obispo,USA,KSBP,America/Los_Angeles,35.23680115,-120.6419983
5769,Sheridan County Airport,Sheridan,USA,KSHR,America/Denver,44.76919937,-106.9800034
5770,Adirondack Regional Airport,Saranac Lake,USA,KSLK,America/New_York,44.38529968,-74.20619965
5771,Salina Municipal Airport,Salina,USA,KSLN,America/Chicago,38.79100037,-97.65219879
5772,Santa Maria Pub/Capt G Allan Hancock Field,Santa Maria,USA,KSMX,America/Los_Angeles,34.89889908,-120.4570007
5773,Tupelo Regional Airport,Tupelo,USA,KTUP,America/Chicago,34.26810074,-88.76989746
5774,Quincy Regional Baldwin Field,Quincy,USA,KUIN,America/Chicago,39.94269943,-91.19460297
5775,Victoria Regional Airport,Victoria,USA,KVCT,America/Chicago,28.8526001,-96.91850281
5776,Valdosta Regional Airport,Valdosta,USA,KVLD,America/New_York,30.78249931,-83.27670288
5777,Worland Municipal Airport,Worland,USA,KWRL,America/Denver,43.96569824,-107.9509964
5779,Yakima Air Terminal McAllister Field,Yakima,USA,KYKM,America/Los_Angeles,46.56819916,-120.5439987
5959,Adak Airport,Adak Island,USA,PADK,America/Adak,51.87799835,-176.6459961
5960,Gustavus Airport,Gustavus,USA,PAGS,America/Anchorage,58.4253006,-135.7070007
5961,Skagway Airport,Skagway,USA,PAGY,America/Anchorage,59.46009827,-135.3159943
5962,Holy Cross Airport,Holy Cross,USA,PAHC,America/Anchorage,62.18830109,-159.7749939
5963,Haines Airport,Haines,USA,PAHN,America/Anchorage,59.24380112,-135.5240021
5964,Kalskag Airport,Kalskag,USA,PALG,America/Anchorage,61.53630066,-160.3410034
5965,McGrath Airport,Mcgrath,USA,PAMC,America/Anchorage,62.95289993,-155.6060028
5966,Mountain Village Airport,Mountain Village,USA,PAMO,America/Anchorage,62.09540176,-163.6820068
5967,Aniak Airport,Aniak,USA,PANI,America/Anchorage,61.58160019,-159.5429993
5968,Chevak Airport,Chevak,USA,PAVA,America/Anchorage,61.5409,-165.6005
5969,Wrangell Airport,Wrangell,USA,PAWG,America/Anchorage,56.48429871,-132.3699951
5989,Kalaupapa Airport,Molokai,USA,PHLU,Pacific/Honolulu,21.21100044,-156.973999
6126,Aleknagik / New Airport,Aleknagik,USA,5A8,America/Anchorage,59.2826004,-158.6179962
6128,Mercer County Airport,Bluefield,USA,KBLF,America/New_York,37.29579926,-81.20770264
6130,Mid Delta Regional Airport,Greenville,USA,KGLH,America/Chicago,33.48289871,-90.98560333
6133,Tri Cities Airport,Pasco,USA,KPSC,America/Los_Angeles,46.26470184,-119.1190033
6134,Akutan Seaplane Base,Akutan,USA,KQA,America/Anchorage,54.13377044,-165.7788956
6136,Lopez Island Airport,Lopez,USA,S31,America/Los_Angeles,48.48389816,-122.9380035
6415,Waikoloa Heliport,Waikoloa Village,USA,HI07,Pacific/Honolulu,19.9205,-155.8607
6426,Worcester Regional Airport,Worcester,USA,KORH,America/New_York,42.26729965,-71.8757019
6445,Bremerton National Airport,Bremerton,USA,KPWT,America/Los_Angeles,47.49020004,-122.7649994
6446,Spencer Municipal Airport,Spencer,USA,KSPW,America/Chicago,43.16550064,-95.20279694
6447,Jefferson City Memorial Airport,Jefferson City,USA,KJEF,America/Chicago,38.59120178,-92.15609741
6456,Provincetown Municipal Airport,Provincetown,USA,KPVC,America/New_York,42.07189941,-70.2213974
6481,Fullerton Municipal Airport,Fullerton,USA,KFUL,America/Los_Angeles,33.87200165,-117.9800034
6482,Concord Regional Airport,Concord,USA,KJQF,America/New_York,35.387798,-80.709099
6494,Friedman Memorial Airport,Hailey,USA,KSUN,America/Denver,43.50439835,-114.2959976
6500,Mason City Municipal Airport,Mason City,USA,KMCW,America/Chicago,43.15779877,-93.33129883
6505,Phoenix-Mesa-Gateway Airport,Mesa,USA,KIWA,America/Phoenix,33.30780029,-111.6549988
6712,Anaktuvuk Pass Airport,Anaktuvuk Pass,USA,PAKP,America/Anchorage,68.13359833,-151.7429962
6713,Anvik Airport,Anvik,USA,PANV,America/Anchorage,62.646702,-160.190994
6714,Atqasuk Edward Burnell Sr Memorial Airport,Atqasuk,USA,PATQ,America/Anchorage,70.46730042,-157.4360046
6715,Gambell Airport,Gambell,USA,PAGM,America/Anchorage,63.76679993,-171.7330017
6716,Hooper Bay Airport,Hooper Bay,USA,PAHP,America/Anchorage,61.52389908,-166.1470032
6717,Kaltag Airport,Kaltag,USA,PAKV,America/Anchorage,64.31909943,-158.7409973
6718,St Mary's Airport,St Mary's,USA,PASM,America/Anchorage,62.0605011,-163.302002
6719,Kivalina Airport,Kivalina,USA,PAVL,America/Anchorage,67.73619843,-164.5630035
6720,Mekoryuk Airport,Mekoryuk,USA,PAMY,America/Anchorage,60.37139893,-166.2709961
6722,Ruby Airport,Ruby,USA,PARY,America/Anchorage,64.72720337,-155.4700012
6723,Shishmaref Airport,Shishmaref,USA,PASH,America/Anchorage,66.249604,-166.089112
6724,Savoonga Airport,Savoonga,USA,PASA,America/Anchorage,63.68640137,-170.4929962
6725,Noatak Airport,Noatak,USA,PAWN,America/Anchorage,67.56610107,-162.9750061
6729,Arctic Village Airport,Arctic Village,USA,PARC,America/Anchorage,68.1147,-145.578995
6739,Hagerstown Regional Richard A Henson Field,Hagerstown,USA,KHGR,America/New_York,39.707901,-77.72949982
6742,Sand Point Airport,Sand Point,USA,PASD,America/Anchorage,55.31499863,-160.522995
6755,Deering Airport,Deering,USA,PADE,America/Anchorage,66.06960297,-162.7660065
6763,Igiugig Airport,Igiugig,USA,PAIG,America/Anchorage,59.32400131,-155.9019928
6764,New Stuyahok Airport,New Stuyahok,USA,PANW,America/Anchorage,59.44990158,-157.3280029
6765,King Cove Airport,King Cove,USA,PAVC,America/Anchorage,55.11629868,-162.2660065
6766,Port Heiden Airport,Port Heiden,USA,PAPH,America/Anchorage,56.95909882,-158.6329956
6767,Togiak Airport,Togiak Village,USA,PATG,America/Anchorage,59.05279922,-160.3970032
6800,Delta County Airport,Escanaba,USA,KESC,America/New_York,45.72269821,-87.09369659
6803,Yakutat Airport,Yakutat,USA,PAYA,America/Anchorage,59.50329971,-139.6600037
6825,Williamson County Regional Airport,Marion,USA,KMWA,America/Chicago,37.75500107,-89.01110077
6837,Ford Airport,Iron Mountain,USA,KIMT,America/Chicago,45.81840134,-88.11450195
6838,Marquette Airport,Marquette,USA,KMQT,America/New_York,46.53390121,-87.56140137
6839,Allakaket Airport,Allakaket,USA,PFAL,America/Anchorage,66.55180359,-152.621994
6844,Michigan City Municipal Airport,Michigan City,USA,KMGC,America/Chicago,41.70330048,-86.82119751
6845,Seward Airport,Seward,USA,PAWD,America/Anchorage,60.12689972,-149.4190063
6849,Grand Marais Cook County Airport,Grand Marais,USA,KCKC,America/Chicago,47.8382988,-90.38289642
6853,Wausau Downtown Airport,Wausau,USA,KAUW,America/Chicago,44.92620087,-89.62660217
6871,Delaware County Johnson Field,Muncie,USA,KMIE,America/New_York,40.24229813,-85.39589691
6873,Purdue University Airport,Lafayette,USA,KLAF,America/New_York,40.41230011,-86.93689728
6876,Brown County Airport,Georgetown,USA,KGEO,America/New_York,38.88190079,-83.88269806
6877,North Las Vegas Airport,Las Vegas,USA,KVGT,America/Los_Angeles,36.21070099,-115.1940002
6878,Kenosha Regional Airport,Kenosha,USA,KENW,America/Chicago,42.59569931,-87.92780304
6880,Montrose Regional Airport,Montrose CO,USA,KMTJ,America/Denver,38.50979996,-107.8939972
6881,Riverton Regional Airport,Riverton WY,USA,KRIW,America/Denver,43.06420136,-108.4599991
6883,Eastern Oregon Regional At Pendleton Airport,Pendleton,USA,KPDT,America/Los_Angeles,45.69509888,-118.8410034
6909,Wittman Regional Airport,Oshkosh,USA,KOSH,America/Chicago,43.9844017,-88.55699921
6916,Pangborn Memorial Airport,Wenatchee,USA,KEAT,America/Los_Angeles,47.39889908,-120.2070007
6948,NAS Fort Worth JRB/Carswell Field,Dallas,USA,KNFW,America/Chicago,32.76919937,-97.4414978
6956,Gary Chicago International Airport,Gary,USA,KGYY,America/Chicago,41.61629868,-87.41280365
6957,Brainerd Lakes Regional Airport,Brainerd,USA,KBRD,America/Chicago,46.39830017,-94.13809967
6958,Greenbrier Valley Airport,Lewisburg,USA,KLWB,America/New_York,37.85829926,-80.39949799
6959,Pitt Greenville Airport,Greenville,USA,KPGV,America/New_York,35.6352005,-77.38529968
6960,Chefornak Airport,Chefornak,USA,PACK,America/Anchorage,60.14920044,-164.2859955
6961,Oxnard Airport,Oxnard,USA,KOXR,America/Los_Angeles,34.20080185,-119.2070007
6968,Schenectady County Airport,Scotia NY,USA,KSCH,America/New_York,42.85250092,-73.92890167
6989,Northeast Florida Regional Airport,St. Augustine Airport,USA,KSGJ,America/New_York,29.95919991,-81.33979797
6992,Charles M. Schulz Sonoma County Airport,Santa Rosa,USA,KSTS,America/Los_Angeles,38.50899887,-122.8130035
6993,Kissimmee Gateway Airport,Kissimmee,USA,KISM,America/New_York,28.28980064,-81.43710327
6994,Lake City Gateway Airport,Lake City,USA,KLCQ,America/New_York,30.18199921,-82.57689667
6995,Deland Municipal Sidney H Taylor Field,DeLand,USA,KDED,America/New_York,29.06699944,-81.28379822
6996,Haller Airpark,Green Cove Springs,USA,7FL4,America/New_York,29.904057,-81.68515
6998,Logan-Cache Airport,Logan,USA,KLGU,America/Denver,41.79119873,-111.8519974
6999,Brigham City Airport,Brigham City,USA,KBMC,America/Denver,41.55239868,-112.0619965
7000,Malad City Airport,Malad City,USA,KMLD,America/Denver,42.16659927,-112.2969971
7001,Aspen-Pitkin Co/Sardy Field,Aspen,USA,KASE,America/Denver,39.22320175,-106.8690033
7009,Kerrville Municipal Louis Schreiner Field,Kerrville,USA,KERV,America/Chicago,29.97669983,-99.08570099
7011,Sussex County Airport,Georgetown,USA,KGED,America/New_York,38.68920135,-75.35890198
7013,Great Bend Municipal Airport,Great Bend,USA,KGBD,America/Chicago,38.34429932,-98.85919952
7014,Hays Regional Airport,Hays,USA,KHYS,America/Chicago,38.84220123,-99.27320099
7015,Spirit of St Louis Airport,Null,USA,KSUS,America/Chicago,38.66210175,-90.65200043
7016,Ely Municipal Airport,Ely,USA,KELO,America/Chicago,47.82450104,-91.83070374
7017,Grand Rapids Itasca Co-Gordon Newstrom field,Grand Rapids MN,USA,KGPZ,America/Chicago,47.21110153,-93.50980377
7018,Thief River Falls Regional Airport,Thief River Falls,USA,KTVF,America/Chicago,48.06570053,-96.18499756
7019,Eagle River Union Airport,Eagle River,USA,KEGV,America/Chicago,45.93230057,-89.26830292
7020,Lakeland-Noble F. Lee Memorial field,Minocqua - Woodruff,USA,KARV,America/Chicago,45.92789841,-89.73090363
7021,Ankeny Regional Airport,Ankeny,USA,KIKV,America/Chicago,41.69139862,-93.56639862
7023,Corpus Christi Naval Air Station/Truax Field,Corpus Christi,USA,KNGP,America/Chicago,27.69260025,-97.29109955
7025,Catalina Airport,Catalina Island,USA,KAVX,America/Los_Angeles,33.4049,-118.416
7026,Mojave Airport,Mojave,USA,KMHV,America/Los_Angeles,35.05939865,-118.1520004
7035,Hutchinson Municipal Airport,Hutchinson,USA,KHUT,America/Chicago,38.06549835,-97.86060333
7042,Rosecrans Memorial Airport,Rosecrans,USA,KSTJ,America/Chicago,39.77190018,-94.90969849
7048,Volk Field,Camp Douglas,USA,KVOK,America/Chicago,43.93899918,-90.25340271
7051,Gunnison Crested Butte Regional Airport,Gunnison,USA,KGUC,America/Denver,38.53390121,-106.9329987
7053,Zamperini Field,Torrance,USA,KTOA,America/Los_Angeles,33.80339813,-118.3399963
7054,Manistee Co Blacker Airport,Manistee,USA,KMBL,America/New_York,44.2723999,-86.24690247
7056,Charlotte County Airport,Punta Gorda,USA,KPGD,America/New_York,26.92020035,-81.9905014
7058,Northern Aroostook Regional Airport,Frenchville,USA,KFVE,America/New_York,47.28549957,-68.31279755
7059,Chautauqua County-Jamestown Airport,Jamestown,USA,KJHW,America/New_York,42.15340042,-79.25800323
7061,Lake Cumberland Regional Airport,Somerset,USA,KSME,America/New_York,37.05339813,-84.61589813
7062,Shenandoah Valley Regional Airport,Weyers Cave,USA,KSHD,America/New_York,38.26380157,-78.89640045
7063,Devils Lake Regional Airport,Devils Lake,USA,KDVL,America/Chicago,48.11420059,-98.90879822
7064,Dickinson Theodore Roosevelt Regional Airport,Dickinson,USA,KDIK,America/Denver,46.79740143,-102.802002
7065,Sidney Richland Municipal Airport,Sidney,USA,KSDY,America/Denver,47.70690155,-104.1930008
7066,Chadron Municipal Airport,Chadron,USA,KCDR,America/Denver,42.83760071,-103.0950012
7067,Alliance Municipal Airport,Alliance,USA,KAIA,America/Denver,42.05319977,-102.8040009
7068,Mc Cook Ben Nelson Regional Airport,McCook,USA,KMCK,America/Chicago,40.20629883,-100.5920029
7069,The Florida Keys Marathon Airport,Marathon,USA,KMTH,America/New_York,24.72610092,-81.05139923
7070,Dawson Community Airport,Glendive,USA,KGDV,America/Denver,47.13869858,-104.8069992
7071,L M Clayton Airport,Wolf Point,USA,KOLF,America/Denver,48.0945015,-105.5749969
7072,Yellowstone Airport,West Yellowstone,USA,KWYS,America/Denver,44.68840027,-111.1179962
7073,San Luis Valley Regional Bergman Field,Alamosa,USA,KALS,America/Denver,37.434898,-105.866997
7074,Canyonlands Field,Moab,USA,KCNY,America/Denver,38.75500107,-109.7549973
7075,Ely Airport Yelland Field,Ely,USA,KELY,America/Los_Angeles,39.29970169,-114.8420029
7076,Vernal Regional Airport,Vernal,USA,KVEL,America/Denver,40.4408989,-109.5100021
7077,Sierra Blanca Regional Airport,Ruidoso,USA,KSRR,America/Denver,33.46279907,-105.5350037
7078,Show Low Regional Airport,Show Low,USA,KSOW,America/Phoenix,34.26549912,-110.0059967
7079,McCall Municipal Airport,McCall,USA,KMYL,America/Denver,44.88970184,-116.1009979
7080,Lemhi County Airport,Salmon,USA,KSMN,America/Denver,45.12379837,-113.8809967
7081,Mammoth Yosemite Airport,Mammoth Lakes,USA,KMMH,America/Los_Angeles,37.62409973,-118.8379974
7082,Friday Harbor Airport,Friday Harbor,USA,KFHR,America/Los_Angeles,48.52199936,-123.0240021
7083,Orcas Island Airport,Eastsound,USA,KORS,America/Los_Angeles,48.70819855,-122.9100037
7085,Astoria Regional Airport,Astoria,USA,KAST,America/Los_Angeles,46.15800095,-123.8789978
7086,Newport Municipal Airport,Newport,USA,KONP,America/Los_Angeles,44.58039856,-124.0579987
7087,Emmonak Airport,Emmonak,USA,PAEM,America/Anchorage,62.78609848,-164.4909973
7088,Unalakleet Airport,Unalakleet,USA,PAUN,America/Anchorage,63.88840103,-160.798996
7089,Ugnu-Kuparuk Airport,Kuparuk,USA,PAKU,America/Anchorage,70.33080292,-149.5980072
7090,Shageluk Airport,Shageluk,USA,PAHX,America/Anchorage,62.69229889,-159.5690002
7092,Nuiqsut Airport,Nuiqsut,USA,PAQT,America/Anchorage,70.20999908,-151.0059967
7093,Eek Airport,Eek,USA,PAEE,America/Anchorage,60.21367264,-162.0438843
7094,Kasigluk Airport,Kasigluk,USA,PFKA,America/Anchorage,60.87440109,-162.5240021
7095,Kwethluk Airport,Kwethluk,USA,PFKW,America/Anchorage,60.79029846,-161.4440002
7096,Kwigillingok Airport,Kwigillingok,USA,PAGG,America/Anchorage,59.876499,-163.169005
7097,Marshall Don Hunter Sr Airport,Marshall,USA,PADM,America/Anchorage,61.86429977,-162.026001
7098,Russian Mission Airport,Russian Mission,USA,PARS,America/Anchorage,61.77888489,-161.319458
7101,Koliganek Airport,Koliganek,USA,PAJZ,America/Anchorage,59.72660065,-157.2590027
7103,Manokotak Airport,Manokotak,USA,PAMB,America/Anchorage,58.99020004,-159.0500031
7105,Chalkyitsik Airport,Chalkyitsik,USA,PACI,America/Anchorage,66.64499664,-143.7400055
7106,Eagle Airport,Eagle,USA,PAEG,America/Anchorage,64.77639771,-141.151001
7107,Hughes Airport,Hughes,USA,PAHU,America/Anchorage,66.04109955,-154.2630005
7108,Huslia Airport,Huslia,USA,PAHL,America/Anchorage,65.69789886,-156.3509979
7111,Nulato Airport,Nulato,USA,PANU,America/Anchorage,64.72930145,-158.0740051
7114,Venetie Airport,Venetie,USA,PAVE,America/Anchorage,67.00869751,-146.3659973
7115,Beaver Airport,Beaver,USA,PAWB,America/Anchorage,66.36219788,-147.4069977
7116,Central Airport,Central,USA,PACE,America/Anchorage,65.57379913,-144.7830048
7117,Shungnak Airport,Shungnak,USA,PAGH,America/Anchorage,66.88809967,-157.1620026
7120,Inyokern Airport,Inyokern,USA,KIYK,America/Los_Angeles,35.65879822,-117.8300018
7121,Visalia Municipal Airport,Visalia,USA,KVIS,America/Los_Angeles,36.31869888,-119.3929977
7122,Merced Regional Macready Field,Merced,USA,KMCE,America/Los_Angeles,37.28469849,-120.5139999
7126,Phoenix Goodyear Airport,Goodyear,USA,KGYR,America/Phoenix,33.42250061,-112.3759995
7135,Angoon Seaplane Base,Angoon,USA,PAGN,America/Anchorage,57.503601,-134.585007
7136,Elfin Cove Seaplane Base,Elfin Cove,USA,PAEL,America/Anchorage,58.19520187,-136.3470001
7140,Funter Bay Seaplane Base,Funter Bay,USA,PANR,America/Anchorage,58.25439835,-134.897995
7142,Hoonah Airport,Hoonah,USA,PAOH,America/Anchorage,58.0961,-135.410111
7143,Kake Airport,Kake,USA,PAFE,America/Anchorage,56.96139908,-133.9100037
7146,Metlakatla Seaplane Base,Metakatla,USA,PAMM,America/Anchorage,55.13100052,-131.5780029
7148,Hydaburg Seaplane Base,Hydaburg,USA,PAHY,America/Anchorage,55.20629883,-132.8280029
7154,Egegik Airport,Egegik,USA,PAII,America/Anchorage,58.1855011,-157.375
7157,Perryville Airport,Perryville,USA,PAPE,America/Anchorage,55.905998,-159.162993
7158,Pilot Point Airport,Pilot Point,USA,PAPN,America/Anchorage,57.58039856,-157.5720062
7159,South Naknek Nr 2 Airport,South Naknek,USA,PFWS,America/Anchorage,58.70339966,-157.0079956
7160,Akhiok Airport,Akhiok,USA,PAKH,America/Anchorage,56.93870163,-154.1829987
7161,Karluk Airport,Karluk,USA,PAKY,America/Anchorage,57.56710052,-154.4499969
7162,Larsen Bay Airport,Larsen Bay,USA,PALB,America/Anchorage,57.53509903,-153.9779968
7177,Ambler Airport,Ambler,USA,PAFM,America/Anchorage,67.10630035,-157.8569946
7178,Buckland Airport,Buckland,USA,PABL,America/Anchorage,65.9815979,-161.1490021
7179,Bob Baker Memorial Airport,Kiana,USA,PAIK,America/Anchorage,66.97599792,-160.4369965
7180,Kobuk Airport,Kobuk,USA,PAOB,America/Anchorage,66.91230011,-156.8970032
7181,Robert (Bob) Curtis Memorial Airport,Noorvik,USA,PFNO,America/Anchorage,66.81790161,-161.0189972
7182,Selawik Airport,Selawik,USA,PASK,America/Anchorage,66.60009766,-159.9859924
7183,Brevig Mission Airport,Brevig Mission,USA,PFKT,America/Anchorage,65.33129883,-166.4660034
7184,Elim Airport,Elim,USA,PFEL,America/Anchorage,64.61470032,-162.2720032
7185,Golovin Airport,Golovin,USA,PAGL,America/Anchorage,64.55049896,-163.0070038
7186,Teller Airport,Teller,USA,PATE,America/Anchorage,65.24040222,-166.3390045
7187,Wales Airport,Wales,USA,PAIW,America/Anchorage,65.622593,-168.095
7188,White Mountain Airport,White Mountain,USA,PAWM,America/Anchorage,64.68920136,-163.4129944
7190,Koyuk Alfred Adams Airport,Koyuk,USA,PAKK,America/Anchorage,64.9394989,-161.154007
7191,St Michael Airport,St. Michael,USA,PAMK,America/Anchorage,63.49010086,-162.1100006
7192,Shaktoolik Airport,Shaktoolik,USA,PFSH,America/Anchorage,64.37110138,-161.223999
7194,Tin City Long Range Radar Station Airport,Tin City,USA,PATC,America/Anchorage,65.56310272,-167.9219971
7195,Atka Airport,Atka,USA,PAAK,America/Adak,52.22029877,-174.2059937
7198,Yakataga Airport,Yakataga,USA,PACY,America/Anchorage,60.08200073,-142.4929962
7199,Alakanuk Airport,Alakanuk,USA,PAUK,America/Anchorage,62.68004227,-164.6599274
7201,Kipnuk Airport,Kipnuk,USA,PAKI,America/Anchorage,59.93299866,-164.0310059
7202,False Pass Airport,False Pass,USA,PAKF,America/Anchorage,54.84740067,-163.4100037
7203,Nelson Lagoon Airport,Nelson Lagoon,USA,PAOU,America/Anchorage,56.00749969,-161.1600037
7204,Port Moller Airport,Cold Bay,USA,PAAL,America/Anchorage,56.00600052,-160.5610046
7205,Klawock Airport,Klawock,USA,PAKW,America/Anchorage,55.57920074,-133.076004
7206,Quinhagak Airport,Quinhagak,USA,PAQH,America/Anchorage,59.75510025,-161.8450012
7207,Kotlik Airport,Kotlik,USA,PFKO,America/Anchorage,63.0306015,-163.5330048
7208,Koyukuk Airport,Koyukuk,USA,PFKU,America/Anchorage,64.87609863,-157.727005
7209,Scammon Bay Airport,Scammon Bay,USA,PACM,America/Anchorage,61.84529877,-165.5709991
7210,Nondalton Airport,Nondalton,USA,PANO,America/Anchorage,59.98020172,-154.8390045
7213,Kongiganak Airport,Kongiganak,USA,PADY,America/Anchorage,59.96080017,-162.8809967
7214,Nikolai Airport,Nikolai,USA,PAFS,America/Anchorage,63.01860046,-154.3580017
7217,Akiak Airport,Akiak,USA,PFAK,America/Anchorage,60.9029007,-161.2310028
7220,Wainwright Airport,Wainwright,USA,PAWI,America/Anchorage,70.63800049,-159.9949951
7233,Chenega Bay Airport,Chenega,USA,PFCB,America/Anchorage,60.07730103,-147.9920044
7235,Tok Junction Airport,Tok,USA,PFTO,America/Anchorage,63.32949829,-142.9539948
7236,Circle City /New/ Airport,Circle,USA,PACR,America/Anchorage,65.830498,-144.076008
7240,Sleetmute Airport,Sleetmute,USA,PASL,America/Anchorage,61.70050049,-157.1660004
7242,Healy River Airport,Healy,USA,PAHV,America/Anchorage,63.86619949,-148.9689941
7244,Klawock Seaplane Base,Klawock,USA,PAQC,America/Anchorage,55.55469894,-133.102005
7245,Minchumina Airport,Lake Minchumina,USA,PAMH,America/Anchorage,63.88600159,-152.302002
7246,Manley Hot Springs Airport,Manley Hot Springs,USA,PAML,America/Anchorage,64.99759674,-150.6439972
7415,Eastern WV Regional Airport/Shepherd Field,Martinsburg,USA,KMRB,America/New_York,39.40190125,-77.98459625
7494,Rock Hill - York County Airport,Rock Hill,USA,KUZA,America/New_York,34.9878006,-81.05719757
7495,Allegheny County Airport,Pittsburgh,USA,KAGC,America/New_York,40.35440063,-79.93019867
7496,Cecil Airport,Jacksonville,USA,KVQQ,America/New_York,30.21870041,-81.87670136
7497,Fulton County Airport Brown Field,Atlanta,USA,KFTY,America/New_York,33.77909851,-84.52140045
7511,Ohio State University Airport,Columbus,USA,KOSU,America/New_York,40.07979965,-83.07299805
7513,Addison Airport,Addison,USA,KADS,America/Chicago,32.96860123,-96.83640289
7514,Destin Executive Airport,Destin,USA,KDTS,America/Chicago,30.40010071,-86.47149658
7522,Kinston Regional Jetport At Stallings Field,Kinston,USA,KISO,America/New_York,35.33140183,-77.6088028
7523,First Flight Airport,Kill Devil Hills,USA,KFFA,America/New_York,36.01819992,-75.6713028
7579,Provo Municipal Airport,Provo,USA,KPVU,America/Denver,40.21920013,-111.7229996
7580,Steamboat Springs Bob Adams Field,Steamboat Springs,USA,KSBS,America/Denver,40.5163002,-106.8659973
7581,Delta Municipal Airport,Delta,USA,KDTA,America/Denver,39.38059998,-112.5080032
7582,Richfield Municipal Airport,Richfield,USA,KRIF,America/Denver,38.7364006,-112.098999
7583,Carbon County Regional/Buck Davis Field,Price,USA,KPUC,America/Denver,39.61389923,-110.7509995
7584,Los Alamos Airport,Los Alamos,USA,KLAM,America/Denver,35.87979889,-106.2689972
7586,Lake Havasu City Airport,Lake Havasu City,USA,KHII,America/Phoenix,34.571098,-114.358002
7587,Winslow Lindbergh Regional Airport,Winslow,USA,KINW,America/Phoenix,35.02190018,-110.7229996
7588,Douglas Municipal Airport,Douglas,USA,KDGL,America/Phoenix,31.34259987,-109.5059967
7621,Bartow Municipal Airport,Bartow,USA,KBOW,America/New_York,27.94339943,-81.78340149
7629,Livermore Municipal Airport,Livermore,USA,KLVK,America/Los_Angeles,37.69340134,-121.8199997
7630,Mariposa Yosemite Airport,Mariposa,USA,KMPI,America/Los_Angeles,37.51089859,-120.0400009
7646,Jacqueline Cochran Regional Airport,Palm Springs,USA,KTRM,America/Los_Angeles,33.62670135,-116.1600037
7647,Santa Monica Municipal Airport,Santa Monica,USA,KSMO,America/Los_Angeles,34.01580048,-118.4509964
7648,Bermuda Dunes Airport,Palm Springs,USA,KUDD,America/Los_Angeles,33.74840164,-116.2750015
7649,Scottsdale Airport,Scottsdale,USA,KSDL,America/Phoenix,33.6228981,-111.9110031
7650,Olympia Regional Airport,Olympia,USA,KOLM,America/Los_Angeles,46.9693985,-122.9029999
7651,Yolo County Davis Woodland Winters Airport,Davis-Woodland-Winters,USA,KDWA,America/Los_Angeles,38.57910156,-121.8570023
7652,Garfield County Regional Airport,Rifle,USA,KRIL,America/Denver,39.52629852,-107.7269974
7653,Shively Field,SARATOGA,USA,KSAA,America/Denver,41.44490051,-106.8239975
7654,DeKalb Peachtree Airport,Atlanta,USA,KPDK,America/New_York,33.87559891,-84.30200195
7655,Monroe County Airport,Bloomington,USA,KBMG,America/New_York,39.14599991,-86.61669922
7656,Witham Field,Stuart,USA,KSUA,America/New_York,27.18169975,-80.22109985
7657,Morristown Municipal Airport,Morristown,USA,KMMU,America/New_York,40.79940033,-74.41490173
7658,Napa County Airport,Napa,USA,KAPC,America/Los_Angeles,38.2132,-122.280998
7659,Brown Field Municipal Airport,San Diego,USA,KSDM,America/Los_Angeles,32.57229996,-116.9800034
7662,Venice Municipal Airport,Venice,USA,KVNC,America/New_York,27.07159996,-82.44029999
7663,Palm Beach County Glades Airport,Pahokee,USA,KPHK,America/New_York,26.78499985,-80.69339752
7669,Northwest Florida Beaches International Airport,Panama City,USA,KECP,America/Chicago,30.357106,-85.795414
7670,San Bernardino International Airport,San Bernardino,USA,KSBD,America/Los_Angeles,34.09540176,-117.2350006
7683,San Carlos Airport,San Carlos,USA,KSQL,America/Los_Angeles,37.51190186,-122.25
7690,Rocky Mount Wilson Regional Airport,Rocky Mount,USA,KRWI,America/New_York,35.85630035,-77.89189911
7691,Whittier Airport,Whittier,USA,PAWR,America/Anchorage,60.77719879,-148.7220001
7692,Soldotna Airport,Soldotna,USA,PASX,America/Anchorage,60.47570038,-151.0339966
7693,Gillespie Field,El Cajon,USA,KSEE,America/Los_Angeles,32.82619858,-116.9720001
7694,San Clemente Island Naval Auxiliary Landing Field,San Clemente Island,USA,KNUC,America/Los_Angeles,33.02270126,-118.5879974
7702,Truckee Tahoe Airport,Truckee,USA,KTRK,America/Los_Angeles,39.31999969,-120.1399994
7712,Cobb County-Mc Collum Field,Atlanta,USA,KRYY,America/New_York,34.01319885,-84.59860229
7716,Dell Flight Strip,Dell,USA,K4U9,America/Denver,44.7356987,-112.7200012
7717,Mission Field,Livingston-Montana,USA,KLVM,America/Denver,45.69940186,-110.447998
7720,Big Timber Airport,Big Timber,USA,K6S0,America/Denver,45.8064003,-109.9810028
7721,Tulip City Airport,Holland,USA,KBIV,America/New_York,42.74290085,-86.10739899
7727,Monument Valley Airport,Monument Valley,USA,UT25,America/Denver,37.01670074,-110.2009964
7732,Lakeland Linder Regional Airport,Lakeland,USA,KLAL,America/New_York,27.98889923,-82.01860046
7767,Indianola Municipal Airport,New York,USA,KIDL,America/Chicago,33.485699,-90.678902
7769,French Valley Airport,Murrieta-Temecula,USA,KF70,America/Los_Angeles,33.57419968,-117.1279984
7775,Carl R Keller Field,Port Clinton,USA,KPCW,America/New_York,41.5163002,-82.86869812
7776,Dayton-Wright Brothers Airport,Dayton,USA,KMGY,America/New_York,39.5890007,-84.22489929
7777,Richmond Municipal Airport,Richmond,USA,KRID,America/New_York,39.75719833,-84.84279633
7778,Findlay Airport,Findley,USA,KFDY,America/New_York,41.01350021,-83.66870117
7809,Black Hills Airport-Clyde Ice Field,Spearfish-South Dakota,USA,KSPF,America/Denver,44.4803009,-103.7829971
7817,Olive Branch Airport,Olive Branch,USA,KOLV,America/Chicago,34.97869873,-89.78690338
7822,Rocky Mountain Metropolitan Airport,Broomfield-CO,USA,KBJC,America/Denver,39.90879822,-105.1169968
7826,Salem Municipal Airport/McNary Field,Salem,USA,KSLE,America/Los_Angeles,44.90950012,-123.0029984
7827,Tunica Municipal Airport,Tunica,USA,KUTA,America/Chicago,34.68099976,-90.34670258
7839,Lawrence J Timmerman Airport,Milwaukee,USA,KMWC,America/Chicago,43.11040115,-88.03440094
7840,Southern Wisconsin Regional Airport,Janesville,USA,KJVL,America/Chicago,42.62030029,-89.04160309
7846,Arlington Municipal Airport,Arlington,USA,KGKY,America/Chicago,32.66389847,-97.09429932
7847,Gwinnett County Briscoe Field,Lawrenceville,USA,KLZU,America/New_York,33.97809982,-83.96240234
7848,Bowling Green Warren County Regional Airport,Bowling Green,USA,KBWG,America/Chicago,36.96450043,-86.41970062
7849,Richard Lloyd Jones Jr Airport,Tulsa,USA,KRVS,America/Chicago,36.03960037,-95.98459625
7857,Bryce Canyon Airport,Bryce Canyon,USA,KBCE,America/Denver,37.70640183,-112.1449966
7859,Burlington Alamance Regional Airport,Burlington,USA,KBUY,America/New_York,36.04850006,-79.47489929
7869,New Century Aircenter Airport,Olathe,USA,KIXD,America/Chicago,38.83089828,-94.89029694
7870,Easton Newnam Field,Easton,USA,KESN,America/New_York,38.80419922,-76.06900024
7875,Yuba County Airport,Yuba City,USA,KMYV,America/Los_Angeles,39.09780121,-121.5699997
7880,Halliburton Field,Duncan,USA,KDUC,America/Chicago,34.47090149,-97.9598999
7885,Garner Field,Uvalde,USA,KUVA,America/Chicago,29.2112999,-99.74359894
7886,Lewis University Airport,Lockport,USA,KLOT,America/Chicago,41.6072998,-88.09619904
7888,Buchanan Field,Concord,USA,KCCR,America/Los_Angeles,37.98970032,-122.0569992
7889,Ocean Reef Club Airport,Ocean Reef Club Airport,USA,07FA,America/New_York,25.3253994,-80.27480316
7907,Ohio University Snyder Field,Athens,USA,KUNI,America/New_York,39.21099854,-82.23139954
7908,Springfield-Beckley Municipal Airport,Springfield,USA,KSGH,America/New_York,39.84030151,-83.84020233
7925,Philip Billard Municipal Airport,Topeka,USA,KTOP,America/Chicago,39.06869888,-95.62249756
7928,Benson Airstrip,Uvalde,USA,2XS8,America/Chicago,29.22940063,-99.82389832
7929,Rough River State Park Airport,Null,USA,K2I3,America/Chicago,37.610022,-86.507262
7930,Smyrna Airport,Smyrna,USA,KMQY,America/Chicago,36.00899887,-86.52010345
7931,Franklin County Airport,Sewanee,USA,KUOS,America/Chicago,35.20510101,-85.89810181
7935,Collin County Regional At Mc Kinney Airport,DALLAS,USA,KTKI,America/Chicago,33.17789841,-96.59049988
7936,Chicago Executive Airport,Chicago-Wheeling,USA,KPWK,America/Chicago,42.114222,-87.901494
7938,Southwest Washington Regional Airport,Kelso,USA,KKLS,America/Los_Angeles,46.11800003,-122.8980026
7978,Wilmington Airpark,Wilmington,USA,KILN,America/New_York,39.42789841,-83.792099
7979,Marana Regional Airport,Tucson,USA,KAVQ,America/Phoenix,32.4095993,-111.2180023
7980,Casa Grande Municipal Airport,Casa Grande,USA,KCGZ,America/Phoenix,32.954899,-111.766998
7981,Mobile Airport,Mobile,USA,1AZ0,America/Phoenix,33.11190033,-112.2689972
7982,Buckeye Municipal Airport,Buckeye,USA,KBXK,America/Phoenix,33.42039871,-112.685997
7983,Gila Bend Municipal Airport,Gila Bend,USA,KE63,America/Phoenix,32.95809937,-112.6780014
7984,McMinn County Airport,Athens,USA,KMMI,America/New_York,35.39730072,-84.56259918
7985,Sterling Municipal Airport,Sterling,USA,KSTK,America/Denver,40.61529922,-103.2649994
7986,Rawlins Municipal Airport/Harvey Field,Rawlins,USA,KRWL,America/Denver,41.80559921,-107.1999969
7990,Essex County Airport,Caldwell,USA,KCDW,America/New_York,40.87519836,-74.28140259
7991,Lee C Fine Memorial Airport,Kaiser Lake Ozark,USA,KAIZ,America/Chicago,38.09600067,-92.54949951
7998,Thomasville Regional Airport,Thomasville,USA,KTVI,America/New_York,30.90159988,-83.88130188
7999,Henderson Executive Airport,Henderson,USA,KHND,America/Los_Angeles,35.97280121,-115.1340027
8005,Henry Tift Myers Airport,Tifton,USA,KTMA,America/New_York,31.42900085,-83.4885025
8030,Phoenix Deer Valley Airport,Phoenix ,USA,KDVT,America/Phoenix,33.68830109,-112.0830002
8034,Republic Airport,Farmingdale,USA,KFRG,America/New_York,40.72880173,-73.41339874
8042,South Texas Regional Airport at Hondo,Hondo,USA,KHDO,America/Chicago,29.35950089,-99.17669678
8050,McKinley National Park Airport,McKinley Park,USA,PAIN,America/Anchorage,63.73260117,-148.9109955
8051,Lake Hood Seaplane Base,Anchorage,USA,PALH,America/Anchorage,61.18000031,-149.9720001
8052,Prospect Creek Airport,Prospect Creek,USA,PAPR,America/Anchorage,66.81410217,-150.6439972
8062,Wheeling Ohio County Airport,Wheeling,USA,KHLG,America/New_York,40.17499924,-80.64630127
8063,Fitzgerald Municipal Airport,Fitzgerald,USA,KFZG,America/New_York,31.68370056,-83.27050018
8077,Aransas County Airport,Rockport,USA,KRKP,America/Chicago,28.08679962,-97.04460144
8117,Crisp County Cordele Airport,Cordele,USA,KCKF,America/New_York,31.98880005,-83.77390289
8118,Ormond Beach Municipal Airport,Ormond Beach,USA,KOMN,America/New_York,29.30060005,-81.11360168
8121,Portland Troutdale Airport,Troutdale,USA,KTTD,America/Los_Angeles,45.54940033,-122.401001
8122,Portland Hillsboro Airport,Hillsboro,USA,KHIO,America/Los_Angeles,45.540401,-122.949997
8123,One Police Plaza Heliport,New York,USA,NK39,America/New_York,40.71260071,-73.99960327
8133,Bend Municipal Airport,Bend,USA,KBDN,America/Los_Angeles,44.09479904,-121.2009964
8134,Christmas Valley Airport,Christmas Valley,USA,K62S,America/Los_Angeles,43.23649979,-120.6660004
8135,Burns Municipal Airport,Burns,USA,KBNO,America/Los_Angeles,43.59189987,-118.9550018
8136,Prineville Airport,Prineville,USA,KS39,America/Los_Angeles,44.28699875,-120.9039993
8137,Red Bluff Municipal Airport,Red Bluff,USA,KRBL,America/Los_Angeles,40.15069962,-122.2519989
8138,Marin County Airport - Gnoss Field,Novato,USA,KDVO,America/Los_Angeles,38.14360046,-122.5559998
8139,Lake County Airport,Lakeview,USA,KLKV,America/Los_Angeles,42.16109848,-120.3990021
8140,Tillamook Airport,Tillamook,USA,KTMK,America/Los_Angeles,45.41820145,-123.814003
8141,Ontario Municipal Airport,Ontario,USA,KONO,America/Denver,44.02050018,-117.0139999
8142,Columbia Gorge Regional the Dalles Municipal Airport,The Dalles,USA,KDLS,America/Los_Angeles,45.61849976,-121.1669998
8143,Montgomery County Airpark,Gaithersburg,USA,KGAI,America/New_York,39.16830063,-77.16600037
8162,Charlevoix Municipal Airport,Charelvoix,USA,KCVX,America/New_York,45.30479813,-85.27480316
8182,Flagler County Airport,Flagler,USA,KXFL,America/New_York,29.4673996,-81.20629883
8187,Morrisville Stowe State Airport,Morrisville,USA,KMVL,America/New_York,44.5345993,-72.61399841
8188,Dallas Executive Airport,Dallas,USA,KRBD,America/Chicago,32.68090057,-96.86820221
8194,Westerly State Airport,Washington County,USA,KWST,America/New_York,41.34960175,-71.80339813
8195,Block Island State Airport,Block Island,USA,KBID,America/New_York,41.16809845,-71.57779694
8199,Nightmute Airport,Nightmute,USA,PAGT,America/Anchorage,60.47100067,-164.701004
8200,Toksook Bay Airport,Toksook Bay,USA,PAOO,America/Anchorage,60.54140091,-165.0870056
8215,Decatur County Industrial Air Park,Bainbridge,USA,KBGE,America/New_York,30.9715004,-84.63739777
8219,Silver Springs Airport,Silver Springs,USA,KSPZ,America/Los_Angeles,39.40299988,-119.2509995
8220,Whiteman Airport,Los Angeles,USA,KWHP,America/Los_Angeles,34.25930023,-118.413002
8221,Madera Municipal Airport,Madera,USA,KMAE,America/Los_Angeles,36.98860168,-120.1119995
8252,Apalachicola Regional Airport,Apalachicola,USA,KAAF,America/New_York,29.72750092,-85.02749634
8273,Douglas Municipal Airport,Douglas,USA,KDQH,America/New_York,31.47669983,-82.86049652
8274,St Lucie County International Airport,Fort Pierce,USA,KFPR,America/New_York,27.49510002,-80.36830139
8276,Taunton Municipal King Field,Taunton,USA,KTAN,America/New_York,41.87440109,-71.01660156
8277,Plymouth Municipal Airport,Plymouth,USA,KPYM,America/New_York,41.9090004,-70.72879791
8278,Quonset State Airport,North Kingstown,USA,KOQU,America/New_York,41.5970993,-71.41210175
8280,Norwood Memorial Airport,Norwood,USA,KOWD,America/New_York,42.19049835,-71.17289734
8281,Barnes Municipal Airport,Westfield,USA,KBAF,America/New_York,42.157799,-72.715599
8282,Windham Airport,Willimantic,USA,KIJD,America/New_York,41.74399948,-72.18029785
8283,Orange County Airport,Montgomery,USA,KMGJ,America/New_York,41.50999832,-74.26460266
8284,Capital City Airport,Harrisburg,USA,KCXY,America/New_York,40.21709824,-76.85150146
8285,Marshfield Municipal George Harlow Field,Marshfield,USA,KGHG,America/New_York,42.09830093,-70.67220306
8286,Danbury Municipal Airport,Danbury,USA,KDXR,America/New_York,41.37149811,-73.48220062
8287,Boire Field,Nashua,USA,KASH,America/New_York,42.78170013,-71.51480103
8288,Lawrence Municipal Airport,Lawrence,USA,KLWM,America/New_York,42.71720123,-71.12339783
8289,Waterbury Oxford Airport,Oxford,USA,KOXC,America/New_York,41.47859955,-73.1352005
8290,Fitchburg Municipal Airport,Fitchburg,USA,KFIT,America/New_York,42.55410004,-71.75900269
8291,Earl L. Small Jr. Field/Stockmar Airport,Villa Rica,USA,20GA,America/New_York,33.75650024,-84.88469696
8292,Cartersville Airport,Cartersville,USA,KVPC,America/New_York,34.12310028,-84.84870148
8293,Centre-Piedmont-Cherokee County Regional Airport,Centre,USA,KPYP,America/Chicago,34.089977,-85.610069
8294,Richard B Russell Airport,Rome,USA,KRMG,America/New_York,34.3506012,-85.15799713
8295,Northeast Alabama Regional Airport,Gadsden,USA,KGAD,America/Chicago,33.972599,-86.088996
8296,Knoxville Downtown Island Airport,Knoxville,USA,KDKX,America/New_York,35.96390152,-83.87390137
8297,Barrow County Airport,Winder,USA,KWDR,America/New_York,33.98289871,-83.66739655
8298,Plantation Airpark,Sylvania,USA,KJYL,America/New_York,32.64530182,-81.5970993
8299,Dalton Municipal Airport,Dalton,USA,KDNN,America/New_York,34.72290039,-84.87020111
8300,West Georgia Regional O V Gray Field,Carrollton,USA,KCTJ,America/New_York,33.63100052,-85.15200043
8302,Lagrange Callaway Airport,LaGrange,USA,KLGC,America/New_York,33.00889969,-85.07260132
8303,Baldwin County Airport,Milledgeville,USA,KMLJ,America/New_York,33.15420151,-83.24069977
8305,Harris County Airport,Pine Mountain,USA,KPIM,America/New_York,32.84069824,-84.88240051
8306,Peachtree City Falcon Field,Atlanta,USA,KFFC,America/New_York,33.3572998,-84.57180023
8308,Lee Gilmer Memorial Airport,Gainesville,USA,KGVL,America/New_York,34.27259827,-83.8302002
8312,Harry Clever Field,New Philadelpha,USA,KPHD,America/New_York,40.47090149,-81.41970062
8313,Darlington County Jetport Airport,Darlington,USA,KUDG,America/New_York,34.44940186,-79.89009857
8314,Hilton Head Airport,Hilton Head Island,USA,KHXD,America/New_York,32.22439957,-80.69750214
8318,Daniel Field,Augusta,USA,KDNL,America/New_York,33.46649933,-82.03939819
8319,Foothills Regional Airport,Morganton,USA,KMRN,America/New_York,35.82020187,-81.61139679
8320,Pike County-Hatcher Field,Pikeville,USA,KPBX,America/New_York,37.5617981,-82.56639862
8321,Mallards Landing Airport,Locust Grove,USA,GA04,America/New_York,33.36569977,-84.16519928
8322,Toccoa Airport - R.G. Letourneau Field,Toccoa,USA,KTOC,America/New_York,34.59379959,-83.29579926
8342,Fort Worth Alliance Airport,Fort Worth,USA,KAFW,America/Chicago,32.98759842,-97.31880188
8343,East Troy Municipal Airport,East Troy,USA,K57C,America/Chicago,42.79719925,-88.37259674
8366,Lawrence Municipal Airport,Lawrence,USA,KLWC,America/Chicago,39.01119995,-95.21659851
8367,Wellington Municipal Airport,Wellington,USA,KEGT,America/Chicago,37.32360077,-97.38829803
8379,Pompano Beach Airpark,Pompano Beach,USA,KPMP,America/New_York,26.24710083,-80.11109924
8394,Shelby County Airport,Alabaster,USA,KEET,America/Chicago,33.17699814,-86.78279877
8397,Sky Ranch At Carefree Airport,Carefree,USA,18AZ,America/Phoenix,33.81809998,-111.8980026
8409,Indianapolis Metropolitan Airport,Indianapolis,USA,KUMP,America/New_York,39.93519974,-86.04499817
8410,London-Corbin Airport/Magee Field,London,USA,KLOZ,America/New_York,37.0821991,-84.0848999
8412,Simmons Army Air Field,Fredericksburg,USA,KFBG,America/New_York,35.13180161,-78.93669891
8430,John H Batten Airport,Racine,USA,KRAC,America/Chicago,42.76060104,-87.81520081
8443,Redlands Municipal Airport,Redlands,USA,KREI,America/Los_Angeles,34.08530045,-117.1460037
8445,Flabob Airport,Riverside,USA,KRIR,America/Los_Angeles,33.98970032,-117.4110031
8446,Tacoma Narrows Airport,Tacoma,USA,KTIW,America/Los_Angeles,47.26789856,-122.5780029
8460,Jack Edwards Airport,Gulf Shores,USA,KJKA,America/Chicago,30.29050064,-87.67179871
8473,Hazleton Municipal Airport,Hazleton,USA,KHZL,America/New_York,40.98680115,-75.99490356
8474,Greater Cumberland Regional Airport,Cumberland,USA,KCBE,America/New_York,39.61539841,-78.7609024
8475,Sugar Loaf Shores Airport,Key West,USA,7FA1,America/New_York,24.6487999,-81.57980347
8493,Tri-County Regional Airport,Lone Rock,USA,KLNR,America/Chicago,43.21170044,-90.18160248
8494,Price County Airport,Phillips,USA,KPBH,America/Chicago,45.70899963,-90.40249634
8495,Monroe Municipal Airport,Monroe,USA,KEFT,America/Chicago,42.61489868,-89.5904007
8496,Joliet Regional Airport,Joliet,USA,KJOT,America/Chicago,41.51779938,-88.17549896
8497,Illinois Valley Regional Airport-Walter A Duncan Field,Peru,USA,KVYS,America/Chicago,41.351898,-89.153099
8499,Jackson County Reynolds Field,Jackson,USA,KJXN,America/New_York,42.25979996,-84.45939636
8502,Joseph A. Hardy Connellsville Airport,Connellsville,USA,KVVS,America/New_York,39.95920181,-79.65709686
8503,Bedford County Airport,Bedford,USA,KHMZ,America/New_York,40.08530045,-78.5121994
8504,Wings Field,Philadelphia,USA,KLOM,America/New_York,40.13750076,-75.26509857
8505,Okeechobee County Airport,Okeechobee,USA,KOBE,America/New_York,27.26280022,-80.84980011
8506,Sebring Regional Airport,Sebring,USA,KSEF,America/New_York,27.45639992,-81.3423996
8507,Avon Park Executive Airport,Avon Park,USA,KAVO,America/New_York,27.59119987,-81.52780151
8508,Winter Haven Municipal Airport - Gilbert Field,Winter Haven,USA,KGIF,America/New_York,28.06290054,-81.75330353
8509,Zephyrhills Municipal Airport,Zephyrhills,USA,KZPH,America/New_York,28.22820091,-82.15589905
8510,Ocala International Airport - Jim Taylor Field,Ocala,USA,KOCF,America/New_York,29.17259979,-82.22419739
8511,Jesup Wayne County Airport,Jesup,USA,KJES,America/New_York,31.55400085,-81.88249969
8512,Madison Municipal Airport,Madison,USA,K52A,America/New_York,33.61209869,-83.46040344
8513,Newnan Coweta County Airport,Newnan,USA,KCCO,America/New_York,33.31159973,-84.76979828
8514,Thomson-McDuffie County Airport,Thomson,USA,KHQU,America/New_York,33.52970123,-82.51650238
8515,Aiken Municipal Airport,Aiken,USA,KAIK,America/New_York,33.6493988,-81.68499756
8516,Woodward Field,Camden,USA,KCDN,America/New_York,34.28359985,-80.56490326
8517,Lumberton Regional Airport,Lumberton,USA,KLBT,America/New_York,34.60990143,-79.05940247
8519,Moore County Airport,Pinehurst-Southern Pines,USA,KSOP,America/New_York,35.23740005,-79.3911972
8520,Richmond County Airport,Rockingham,USA,KRCZ,America/New_York,34.8913,-79.759598
8524,Baraboo Wisconsin Dells Airport,Baraboo,USA,KDLL,America/Chicago,43.52270126,-89.77020264
8526,Statesville Regional Airport,Statesville,USA,KSVH,America/New_York,35.76530075,-80.9539032
8528,Burlington Municipal Airport,Burlington,USA,KBUU,America/Chicago,42.69070053,-88.30460358
8532,William T. Piper Memorial Airport,Lock Haven,USA,KLHV,America/New_York,41.13560104,-77.42230225
8538,Zelienople Municipal Airport,Zelienople,USA,KPJC,America/New_York,40.80160141,-80.16069794
8542,Lorain County Regional Airport,Lorain-Elyria,USA,KLPR,America/New_York,41.34429932,-82.17759705
8544,Burke Lakefront Airport,Cleveland,USA,KBKL,America/New_York,41.51750183,-81.6832962
8545,Chautauqua County-Dunkirk Airport,Dunkirk,USA,KDKK,America/New_York,42.49330139,-79.27200317
8548,South Jersey Regional Airport,Mount Holly,USA,KVAY,America/New_York,39.94290161,-74.84570313
8550,Linden Airport,Linden,USA,KLDJ,America/New_York,40.61740112,-74.24459839
8553,Tri State Steuben County Airport,Angola,USA,KANQ,America/New_York,41.639702,-85.083504
8555,Warsaw Municipal Airport,Warsaw,USA,KASW,America/New_York,41.27470016,-85.84010315
8556,Van Wert County Airport,Van Wert,USA,KVNW,America/New_York,40.86470032,-84.60939789
8559,Brooks Field,Marshall,USA,KRMY,America/New_York,42.25120163,-84.95549774
8560,Genesee County Airport,Batavia,USA,KGVQ,America/New_York,43.03170013,-78.16760254
8565,Clearwater Air Park,Clearwater,USA,KCLW,America/New_York,27.97669983,-82.75869751
8593,Chicago Meigs Airport,Chicago,USA,KCGX,America/Chicago,41.85879898,-87.60790253
8601,Pickens County Airport,Jasper,USA,KJZP,America/New_York,34.45339966,-84.45739746
8604,Grand Strand Airport,North Myrtle Beach,USA,KCRE,America/New_York,33.81169891,-78.72389984
8606,Lansing Municipal Airport,Lansing,USA,KIGQ,America/Chicago,41.53490067,-87.52950287
8608,Ramona Airport,Ramona,USA,KRNM,America/Los_Angeles,33.03919983,-116.9150009
8624,Branch County Memorial Airport,Coldwater,USA,KOEB,America/New_York,41.9333992,-85.05259705
8625,Wilkes Barre Wyoming Valley Airport,Wilkes-Barre,USA,KWBW,America/New_York,41.29719925,-75.85119629
8626,Willoughby Lost Nation Municipal Airport,Willoughby,USA,KLNN,America/New_York,41.68399811,-81.38970184
8631,Capital City Airport,Frankfort,USA,KFFT,America/New_York,38.18249893,-84.90470123
8632,Auburn Lewiston Municipal Airport,Lewiston,USA,KLEW,America/New_York,44.04850006,-70.28350067
8639,Bloyer Field,Tomah,USA,KY72,America/Chicago,43.97499847,-90.48349762
8641,Marco Island Airport,Marco Island Airport,USA,KMKY,America/New_York,25.99500084,-81.67250061
8644,Drummond Island Airport,Drummond Island,USA,KDRM,America/New_York,46.00930023,-83.74389648
8646,Gladwin Zettel Memorial Airport,Gladwin,USA,KGDW,America/New_York,43.97060013,-84.47499847
8648,South Haven Area Regional Airport,South Haven,USA,KLWA,America/New_York,42.3512001,-86.25569916
8653,Marshfield Municipal Airport,Marshfield,USA,KMFI,America/Chicago,44.63690186,-90.18930054
8654,Alexander Field South Wood County Airport,Wisconsin Rapids,USA,KISW,America/Chicago,44.36029816,-89.83899689
8655,Clinton Municipal Airport,Clinton,USA,KCWI,America/Chicago,41.83110046,-90.32910156
8658,Beverly Municipal Airport,Beverly,USA,KBVY,America/New_York,42.58420181,-70.91649628
8664,Poplar Bluff Municipal Airport,Poplar Bluff,USA,KPOF,America/Chicago,36.77389908,-90.32489777
8665,Somerset Airport,Somerville,USA,KSMQ,America/New_York,40.62599945,-74.67019653
8666,Eastport Municipal Airport,Eastport,USA,KEPM,America/New_York,44.91009903,-67.01270294
8667,Keokuk Municipal Airport,Keokuk,USA,KEOK,America/Chicago,40.4598999,-91.42849731
8681,St Paul Downtown Holman Field,St. Paul,USA,KSTP,America/Chicago,44.93450165,-93.05999756
8693,Oconomowoc Airport,Oconomowoc,USA,0WI8,America/Chicago,43.13890076,-88.47229767
8706,Butler Co Regional Airport - Hogan Field,Hamilton,USA,KHAO,America/New_York,39.36380005,-84.52200317
8742,Fond du Lac County Airport,Fond du Lac,USA,KFLD,America/Chicago,43.77119827,-88.48840332
8743,Waupaca Municipal Airport,Waupaca,USA,KPCZ,America/Chicago,44.33330154,-89.01979828
8744,Stevens Point Municipal Airport,Stevens Point,USA,KSTE,America/Chicago,44.54520035,-89.53029633
8747,Luce County Airport,Newberry,USA,KERY,America/New_York,46.31119919,-85.45729828
8759,Galion Municipal Airport,Galion,USA,KGQQ,America/New_York,40.7533989,-82.72380066
8763,Clarksville–Montgomery County Regional Airport,Clarksville,USA,KCKV,America/Chicago,36.62189865,-87.41500092
8771,Lompoc Airport,Lompoc,USA,KLPC,America/Los_Angeles,34.66559982,-120.4680023
8772,Chester County G O Carlson Airport,Coatesville,USA,KMQS,America/New_York,39.97900009,-75.8655014
8777,Lake Placid Airport,Lake Placid,USA,KLKP,America/New_York,44.26449966,-73.9618988
8784,Lima Allen County Airport,Lima,USA,KAOH,America/New_York,40.706902,-84.026703
8789,Malcolm McKinnon Airport,Brunswick,USA,KSSI,America/New_York,31.15180016,-81.39129639
8790,Beaver County Airport,Beaver Falls,USA,KBVI,America/New_York,40.77249908,-80.3914032
8792,Georgetown County Airport,Georgetown,USA,KGGE,America/New_York,33.31169891,-79.31960297
8793,Hardwick Field,Cleveland,USA,KHDI,America/New_York,35.2201004,-84.83239746
8796,Renton Municipal Airport,Renton,USA,KRNT,America/Los_Angeles,47.49309921,-122.2160034
8798,Brackett Field,La Verne,USA,KPOC,America/Los_Angeles,34.09159851,-117.7819977
8801,Cross City Airport,Cross City,USA,KCTY,America/New_York,29.63549995,-83.10479736
8802,Oconee County Regional Airport,Clemson,USA,KCEU,America/New_York,34.6719017,-82.8864975
8804,Beech Factory Airport,Wichita,USA,KBEC,America/Chicago,37.69449997,-97.21499634
8808,Tom B. David Field,Calhoun,USA,KCZL,America/New_York,34.45539856,-84.93920135
8809,Habersham County Airport,Cornelia,USA,KAJR,America/New_York,34.49990082,-83.55670166
8811,Georgetown Municipal Airport,Georgetown,USA,KGTU,America/Chicago,30.67880058,-97.67939758
8812,Old Rhinebeck Airport,Rhinebeck,USA,NY94,America/New_York,41.9715004,-73.86289978
8815,Sidney Municipal-Lloyd W Carr Field,Sidney,USA,KSNY,America/Denver,41.10129929,-102.9850006
8824,Kalaeloa Airport,Kapolei,USA,PHJR,Pacific/Honolulu,21.3074,-158.070009
8833,Iosco County Airport,East Tawas,USA,K6D9,America/New_York,44.312801,-83.422302
8834,Madison County Executive Airport-Tom Sharp Jr Field,Huntsville,USA,KMDQ,America/Chicago,34.8614006,-86.55750275
8835,Leesburg Executive Airport,Leesburg,USA,KJYO,America/New_York,39.07799911,-77.55750275
8838,Anoka County-Blaine Arpt(Janes Field) Airport,Anoka,USA,KANE,America/Chicago,45.14500046,-93.21140289
8850,Williamson Sodus Airport,Williamson,USA,KSDC,America/New_York,43.23469925,-77.1210022
8854,Boulder Municipal Airport,Boulder,USA,KBDU,America/Denver,40.03939819,-105.2259979
8864,Palo Alto Airport of Santa Clara County,Palo Alto,USA,KPAO,America/Los_Angeles,37.46110153,-122.1149979
8869,Falcon Field,Mesa,USA,KFFZ,America/Phoenix,33.46080017,-111.7279968
8870,Coolidge Municipal Airport,Cooldige,USA,KP08,America/Phoenix,32.93590164,-111.427002
8871,Cottonwood Airport,Cottonwood,USA,KP52,America/Phoenix,34.72999954,-112.0350037
8874,Ak-Chin Regional Airport,Phoenix,USA,KA39,America/Phoenix,32.9908056,-111.9185278
8875,Wickenburg Municipal Airport,Wickenburg,USA,KE25,America/Phoenix,33.96889877,-112.7990036
8877,Oakland County International Airport,Pontiac,USA,KPTK,America/New_York,42.66550064,-83.42009735
8888,Dillant Hopkins Airport,Keene,USA,KEEN,America/New_York,42.89839935,-72.27079773
8893,Glasgow Industrial Airport,Glasgow,USA,07MT,America/Denver,48.42110062,-106.5279999
8925,Iowa City Municipal Airport,Iowa City,USA,KIOW,America/Chicago,41.6391983,-91.54650116
8928,Windom Municipal Airport,Windom,USA,KMWM,America/Chicago,43.91339874,-95.10939789
8931,Longview Ranch Airport,Longview,USA,OG39,America/Los_Angeles,44.6617012,-119.6520004
8935,Lee Airport,Annapolis,USA,KANP,America/New_York,38.942902,-76.568398
8950,Pecos Municipal Airport,Pecos,USA,KPEQ,America/Chicago,31.38240051,-103.5110016
8951,Hattiesburg Bobby L Chain Municipal Airport,Hattiesburg,USA,KHBG,America/Chicago,31.26479912,-89.25279999
8958,Chan Gurney Municipal Airport,Yankton,USA,KYKN,America/Chicago,42.91669846,-97.3859024
8982,Hayward Executive Airport,Hayward,USA,KHWD,America/Los_Angeles,37.65919876,-122.1220016
8989,Ann Arbor Municipal Airport,Ann Arbor,USA,KARB,America/New_York,42.22299957,-83.74559784
9066,Atlanta South Regional Airport/Tara Field,Hampton,USA,K4A7,America/New_York,33.389099,-84.332397
9093,Comarapa Airport,Salt Lake City,USA,SLCR,America/La_Paz,-17.91360092,-64.51779938
9102,Immokalee Regional Airport,Immokalee ,USA,KIMM,America/New_York,26.43320084,-81.40100098
9104,Rancho San Simeon Airport,Cambria,USA,66CA,America/Los_Angeles,35.60770035,-121.1100006
9120,Dinwiddie County Airport,Petersburg,USA,KPTB,America/New_York,37.18379974,-77.50740051
9126,Sheboygan County Memorial Airport,Sheboygan,USA,KSBM,America/Chicago,43.76959991,-87.85140228
9138,Pinal Airpark,Marana,USA,KMZJ,America/Phoenix,32.51060104,-111.3280029
9139,Glendale Municipal Airport,Glendale,USA,KGEU,America/Phoenix,33.52690125,-112.2949982
9140,Safford Regional Airport,Safford,USA,KSAD,America/Phoenix,32.85480118,-109.6350021
9164,Sikeston Memorial Municipal Airport,Sikeston,USA,KSIK,America/Chicago,36.89889908,-89.5617981
9178,Floyd Bennett Memorial Airport,Queensbury,USA,KGFL,America/New_York,43.34120178,-73.61029816
9179,Saratoga County Airport,Ballston Spa,USA,K5B2,America/New_York,43.05130005,-73.86119843
9182,Crystal River Airport,Crystal River,USA,KCGC,America/New_York,28.86730003,-82.57129669
9183,Martin State Airport,Baltimore,USA,KMTN,America/New_York,39.32569885,-76.4138031
9184,Lincoln Regional Karl Harder Field,Lincoln,USA,KLHM,America/Los_Angeles,38.90919876,-121.3509979
9185,Fostoria Metropolitan Airport,Fostoria,USA,KFZI,America/New_York,41.19079971,-83.39450073
9186,Eastern Slopes Regional Airport,Fryeburg,USA,KIZG,America/New_York,43.99110031,-70.94789886
9187,Coral Creek Airport,Placida,USA,FA54,America/New_York,26.85449982,-82.25119781
9188,Lakefront Airport,New Orleans,USA,KNEW,America/Chicago,30.04240036,-90.02829742
9189,Coeur D'Alene - Pappy Boyington Field,Coeur d'Alene,USA,KCOE,America/Los_Angeles,47.77429962,-116.8199997
9190,Beaumont Municipal Airport,Beaumont,USA,KBMT,America/Chicago,30.07069969,-94.21579742
9191,Vermilion Regional Airport,Danville,USA,KDNV,America/Chicago,40.19919968,-87.59590149
9199,Space Coast Regional Airport,Titusville,USA,KTIX,America/New_York,28.51479912,-80.79920197
9225,Andrau Airpark,Houston,USA,KAAP,America/Chicago,29.72249985,-95.58830261
9226,Flying Cloud Airport,Eden Prairie,USA,KFCM,America/Chicago,44.82720184,-93.45709991
9228,Johnson County Executive Airport,Olathe,USA,KOJC,America/Chicago,38.84759903,-94.73760223
9249,Brandywine Airport,West Goshen Township,USA,KOQN,America/New_York,39.99010086,-75.58190155
9251,Manassas Regional Airport/Harry P. Davis Field,Manassas,USA,KHEF,America/New_York,38.72140121,-77.51540375
9252,Texas Gulf Coast Regional Airport,Angleton,USA,KLBX,America/Chicago,29.10860062,-95.46209717
9305,Shelby County Airport,Shelbyville,USA,K2H0,America/Chicago,39.41040039,-88.84539795
9348,Enumclaw Airport,Enumclaw,USA,WA77,America/Los_Angeles,47.1957016,-122.0220032
9390,Fairfield County Airport,Winnsboro,USA,KFDW,America/New_York,34.31549835,-81.1088028
9396,Skyhaven Airport,Rochester,USA,KDAW,America/New_York,43.28409958,-70.9292984
9399,Newton City-County Airport,Newton,USA,KEWK,America/Chicago,38.05820084,-97.27449799
9403,Taszár Air Base,Columbus,USA,LHTA,Europe/Budapest,46.39310074,17.91749954
9406,Fort Bridger Airport,Fort Bridger,USA,KFBR,America/Denver,41.39189911,-110.4069977
9407,Prosser Airport,Prosser,USA,KS40,America/Los_Angeles,46.21340179,-119.7910004
9408,Chehalis Centralia Airport,Chehalis,USA,KCLS,America/Los_Angeles,46.67699814,-122.9830017
9409,Desert Aire Airport,Mattawa,USA,KM94,America/Los_Angeles,46.68740082,-119.9209976
9411,Evanston-Uinta County Airport-Burns Field,Evanston,USA,KEVW,America/Denver,41.27479935,-111.0350037
9412,Sabetha Municipal Airport,Sabetha,USA,KK83,America/Chicago,39.90420151,-95.77940369
9413,Mt Pleasant Regional-Faison field,Mount Pleasant,USA,KLRO,America/New_York,32.89780045,-79.78289795
9414,Souther Field,Americus,USA,KACJ,America/New_York,32.1108017,-84.18890381
9415,Weedon Field,Eufala,USA,KEUF,America/Chicago,31.95129967,-85.12889862
9416,Saluda County Airport,Saluda,USA,K6J4,America/New_York,33.92679977,-81.79460144
9417,Dare County Regional Airport,Manteo,USA,KMQI,America/New_York,35.91899872,-75.69550323
9418,Auburn Opelika Robert G. Pitts Airport,Auburn,USA,KAUO,America/Chicago,32.61510086,-85.43399811
9419,Tri Cities Airport,Endicott,USA,KCZG,America/New_York,42.078499,-76.096296
9428,Bessemer Airport,Bessemer,USA,KEKY,America/Chicago,33.31290054,-86.92590332
9429,Colorado Springs East Airport,Ellicott,USA,KA50,America/Denver,38.87440109,-104.4100037
9447,Crystal Airport,Crystal,USA,KMIC,America/Chicago,45.06200027,-93.35389709
9448,Clarke County Airport,Quitman,USA,K23M,America/Chicago,32.0848999,-88.73889923
9450,W H 'Bud' Barron Airport,Dublin,USA,KDBN,America/New_York,32.56439972,-82.98529816
9488,Corvallis Municipal Airport,Corvallis,USA,KCVO,America/Los_Angeles,44.49720001,-123.2900009
9500,El Almendro Airport,Scranton,USA,SCRT,America/Santiago,-35.96055603,-71.79333496
9511,San Agustin Airport,Morristown,USA,MRST,America/Costa_Rica,10.0666666,-84.8833313
9533,Cowra Airport,Chatsworth,USA,YCWR,Australia/Sydney,-33.84469986,148.6490021
9543,Ogden Hinckley Airport,Ogden,USA,KOGD,America/Denver,41.19589996,-112.012001
9545,Robert S Kerr Airport,Poteau,USA,KRKR,America/Chicago,35.02159882,-94.62129974
9546,Colorado Plains Regional Airport,Akron,USA,KAKO,America/Denver,40.17559814,-103.2220001
9547,Sanderson Field,Shelton,USA,KSHN,America/Los_Angeles,47.23360062,-123.1480026
9739,Napakiak Airport,Napakiak,USA,PANA,America/Anchorage,60.69029999,-161.9790039
9744,Napaskiak Airport,Napaskiak,USA,PAPK,America/Anchorage,60.70289993,-161.7779999
9746,Tok Airport,Tok,USA,PATJ,America/Anchorage,63.303333,-143.001111
9754,Causey Airport,Liberty,USA,K2A5,America/New_York,35.91180038,-79.61759949
9763,Doylestown Airport,Doylestown,USA,KDYL,America/New_York,40.33300018,-75.12229919
9772,Warren Field,Washington,USA,KOCW,America/New_York,35.57049942,-77.04979706
9773,Hyde County Airport,Engelhard,USA,K7W6,America/New_York,35.56240082,-75.9552002
9776,Stillwater Regional Airport,Stillwater,USA,KSWO,America/Chicago,36.16120148,-97.08570099
9777,Okmulgee Regional Airport,Okmulgee,USA,KOKM,America/Chicago,35.66809845,-95.94869995
9778,Cushing Municipal Airport,Cushing,USA,KCUH,America/Chicago,35.94990158,-96.77310181
9779,Clinton Sherman Airport,Clinton,USA,KCSM,America/Chicago,35.33980179,-99.20050049
9780,Strother Field,Winfield,USA,KWLD,America/Chicago,37.16859818,-97.03759766
9781,Wiley Post Airport,Oklahoma City,USA,KPWA,America/Chicago,35.53419876,-97.64710236
9782,Shreveport Downtown Airport,Shreveport,USA,KDTN,America/Chicago,32.54019928,-93.74500275
9783,Stephenville Clark Regional Airport,Stephenville,USA,KSEP,America/Chicago,32.21530151,-98.17769623
9784,Perry Municipal Airport,Perry,USA,KF22,America/Chicago,36.38560104,-97.27719879
9786,Hamilton Municipal Airport,Hamilton,USA,KMNZ,America/Chicago,31.66589928,-98.14859772
9787,Ada Municipal Airport,Ada,USA,KADH,America/Chicago,34.8042984,-96.6713028
9788,Mesquite Metro Airport,Misquite,USA,KHQZ,America/Chicago,32.74700165,-96.53040314
9789,Denton Municipal Airport,Denton,USA,KDTO,America/Chicago,33.20069885,-97.19799805
9790,Austin Executive Airport,Austin,USA,KEDC,America/Chicago,30.3974931,-97.5663935
9791,Lago Vista Tx Rusty Allen Airport,Lago Vista,USA,KRYW,America/Chicago,30.49860001,-97.96949768
9792,Brenham Municipal Airport,Brenham,USA,K11R,America/Chicago,30.21899986,-96.3742981
9793,Lakeway Airpark,Lakeway,USA,K3R9,America/Chicago,30.35750008,-97.99449921
9794,Iraan Municipal Airport,Iraan,USA,K2F0,America/Chicago,30.90570068,-101.8919983
9795,Kestrel Airpark,San Antonio,USA,K1T7,America/Chicago,29.81270027,-98.4253006
9797,Wilkes County Airport,North Wilkesboro,USA,KUKF,America/New_York,36.22280121,-81.09829712
9798,Charleston Executive Airport,Charleston,USA,KJZI,America/New_York,32.70090103,-80.00289917
9799,Danville Regional Airport,Danville,USA,KDAN,America/New_York,36.57289886,-79.33609772
9800,Brookneal/Campbell County Airport,Brookneal,USA,K0V4,America/New_York,37.14170074,-79.0164032
9806,Cheraw Municipal Airport/Lynch Bellinger Field,Cheraw,USA,KCQW,America/New_York,34.71289825,-79.95700073
9808,Wauchula Municipal Airport,Wuchula,USA,KCHN,America/New_York,27.51490021,-81.88050079
9847,Conway Horry County Airport,Conway,USA,KHYW,America/New_York,33.82849884,-79.12220001
9938,Asheboro Regional Airport,Asheboro,USA,KHBI,N/A,35.65449905,-79.8946991
9942,Henderson Field,Wallace,USA,KACZ,N/A,34.71789932,-78.00360107
9943,Emporia Greensville Regional Airport,Emporia,USA,KEMV,N/A,36.68690109,-77.48280334
10017,El Monte Airport,El Monte,USA,KEMT,N/A,34.08610153,-118.0350037
10062,Kee Field,Pineville,USA,KI16,N/A,37.60039902,-81.55930328
10102,Stinson Municipal Airport,Stinson,USA,KSSF,N/A,29.33699989,-98.47109985
10103,Sallisaw Municipal Airport,Sallisaw,USA,KJSV,N/A,35.4382019,-94.80280304
10104,Jasper County Airport-Bell Field,Jasper,USA,KJAS,N/A,30.88570023,-94.03489685
10105,El Dorado Springs Memorial Airport,El dorado springs,USA,K87K,N/A,37.8567009,-93.99909973
10106,Marfa Municipal Airport,Marfa,USA,KMRF,N/A,30.371099,-104.017997
10107,Alpine Casparis Municipal Airport,Alpine,USA,KE38,N/A,30.38419914,-103.6839981
10117,Cable Airport,Upland,USA,KCCB,N/A,34.11159897,-117.6880035
10121,Mount Sterling Montgomery County Airport,Mount Sterling,USA,KIOB,N/A,38.05810165,-83.979599
10122,Elkhart Municipal Airport,Elkhart,USA,KEKM,N/A,41.7193985,-86.00319672
10123,Nappanee Municipal Airport,Nappanee ,USA,KC03,N/A,41.44620132,-85.93479919
10128,Jim Hamilton L.B. Owens Airport,Columbia,USA,KCUB,N/A,33.97050095,-80.99520111
10129,Grove Municipal Airport,Grove,USA,KGMJ,N/A,36.60680008,-94.73860168
10130,Mc Pherson Airport,Mc Pherson,USA,KMPR,N/A,38.35240173,-97.69129944
10131,Donaldson Center Airport,Greenville,USA,KGYH,N/A,34.75830078,-82.37640381
10132,Perry Houston County Airport,Perry,USA,KPXE,N/A,32.51060104,-83.76730347
10133,Hartsville Regional Airport,Hartsville,USA,KHVS,N/A,34.40309906,-80.11920166
10134,Horace Williams Airport,Chapel Hill,USA,KIGX,N/A,35.935001,-79.065902
10138,Brunswick County Airport,Oak Island,USA,KSUT,N/A,33.9292984,-78.07499695
10139,Chesterfield County Airport,Richmond,USA,KFCI,N/A,37.40650177,-77.52500153
10144,Henderson Oxford Airport,Oxford,USA,KHNZ,N/A,36.36159897,-78.52919769
10145,Leesburg International Airport,Leesburg,USA,KLEE,N/A,28.82309914,-81.80870056
10162,Chino Airport,Chino,USA,KCNO,N/A,33.97470093,-117.637001
10169,Madison County Airport,London,USA,KUYF,N/A,39.93270111,-83.46199799
10185,Paso Robles Municipal Airport,Paso Robles,USA,KPRB,N/A,35.67290115,-120.6269989
10360,Half Moon Bay Airport,Half Moon Bay,USA,KHAF,N/A,37.51340103,-122.5009995
10371,General WM J Fox Airfield,Lancaster,USA,KWJF,N/A,34.74110031,-118.2190018
10831,Person County Airport,Roxboro,USA,KTDF,N/A,36.28490067,-78.98419952
11004,Talladega Municipal Airport,Talladega,USA,KASN,N/A,33.56990051,-86.05090332
11005,Greenville Downtown Airport,Greenville,USA,KGMU,N/A,34.84790039,-82.34999847
11008,Mankato Regional Airport,Mankato,USA,KMKT,N/A,44.22159958,-93.91870117
11010,Troy Municipal Airport,Troy,USA,KTOI,N/A,31.86039925,-86.01210022
11011,Merkel Field Sylacauga Municipal Airport,Sylacauga,USA,KSCD,N/A,33.17179871,-86.30549622
11012,Enterprise Municipal Airport,Enterprise,USA,KEDN,N/A,31.29969978,-85.89990234
11017,Ryan Field,Tucson,USA,KRYN,N/A,32.14220047,-111.1750031
11022,Thomas C Russell Field,Alexander City,USA,KALX,N/A,32.91469955,-85.96299744
11035,Meriden Markham Municipal Airport,Meriden,USA,KMMK,N/A,41.50870132,-72.82949829
11067,Ridgely Airpark,Ridgely,USA,KRJD,N/A,38.9701004,-75.86630249
11068,New Castle Henry Co. Municipal Airport,New Castle,USA,KUWL,N/A,39.87590027,-85.32649994
11069,Scott City Municipal Airport,Scott City,USA,KTQK,N/A,38.47430038,-100.8850021
11070,Brewster Field,Holdredge,USA,KHDE,N/A,40.452099,-99.336502
11071,Pratt Regional Airport,Pratt,USA,KPTT,N/A,37.70159912,-98.74690247
11073,Wahoo Municipal Airport,Wahoo,USA,KAHQ,N/A,41.24129868,-96.59400177
11074,Jim Kelly Field,Lexington,USA,KLXN,N/A,40.79100037,-99.77729797
11075,Sublette Municipal Airport,Sublette,USA,K19S,N/A,37.49140167,-100.8300018
11076,Council Bluffs Municipal Airport,Council Bluffs,USA,KCBF,N/A,41.25920105,-95.76059723
11077,Kokomo Municipal Airport,Kokomo,USA,KOKK,N/A,40.52819824,-86.05899811
11078,Neodesha Municipal Airport,Neodesha,USA,K2K7,N/A,37.4353981,-95.64610291
11079,King Ranch Airport,Sutton,USA,AK59,N/A,61.79560089,-148.3549957
11080,Elkhart Morton County Airport,Elkhart,USA,KEHA,N/A,37.000702,-101.879997
11081,Front Range Airport,Denver,USA,KFTG,N/A,39.78530121,-104.5429993
11082,Galesburg Municipal Airport,Galesburg,USA,KGBG,N/A,40.93799973,-90.43109894
11084,Guymon Municipal Airport,Guymon,USA,KGUY,N/A,36.68510056,-101.5080032
11086,Meade Municipal Airport,Meade,USA,KMEJ,N/A,37.27690125,-100.3560028
11087,Turkey Mountain Estates Airport,Shell Knob,USA,MO00,N/A,36.59170151,-93.66690063
11088,Ulysses Airport,Ulysses,USA,KULS,N/A,37.60400009,-101.3740005
11089,Flagler Aerial Spraying Inc Airport,Flagler,USA,CO00,N/A,39.27999878,-103.0670013
11090,Independence Municipal Airport,Independence,USA,KIDP,N/A,37.15840149,-95.77839661
11091,Augusta Municipal Airport,Augusta,USA,K3AU,N/A,37.67160034,-97.07790375
11092,Larned Pawnee County Airport,Larned,USA,KLQR,N/A,38.20859909,-99.08599854
11093,Lampasas Airport,Lampasas,USA,KLZZ,N/A,31.10619926,-98.19589996
11094,Bay City Municipal Airport,Bay City,USA,KBYY,N/A,28.97330093,-95.8635025
11095,Cox Field,Paris,USA,KPRX,N/A,33.63660049,-95.45079803
11096,Coffeyville Municipal Airport,Coffeyville,USA,KCFV,N/A,37.09400177,-95.57189941
11097,The Farm Airport,Summit,USA,24SC,N/A,33.93579865,-81.42970276
11098,Greeley–Weld County Airport,Greeley,USA,KGXY,N/A,40.43740082,-104.6330032
11099,General Dewitt Spain Airport,Memphis,USA,KM01,N/A,35.20069885,-90.05400085
11100,Oryol Yuzhny Airport,Oakley,USA,UUOR,N/A,52.93470001,36.00220108
11101,Fremont Municipal Airport,Fremont,USA,KFET,N/A,41.44910049,-96.52020264
11102,La Grande/Union County Airport,La Grande,USA,KLGD,N/A,45.29019928,-118.0070038
11110,Pocono Mountains Municipal Airport,Mount Pocono,USA,KMPO,N/A,41.13750076,-75.37889862
11111,Quakertown Airport,Quakertown,USA,KUKT,N/A,40.43519974,-75.38189697
11131,Banning Municipal Airport,Banning,USA,KBNG,N/A,33.92309952,-116.8509979
11134,Karl Stefan Memorial Airport,Norfolk  Nebraska,USA,KOFK,N/A,41.98550034,-97.43509674
11141,Arlington Municipal Airport,Arlington,USA,KAWO,N/A,48.16070175,-122.1589966
11153,Peter O Knight Airport,Tampa,USA,KTPF,N/A,27.91559982,-82.44930267
11243,Montauk Airport,Montauk,USA,KMTP,N/A,41.07649994,-71.92079926
11255,Porter County Municipal Airport,Valparaiso IN,USA,KVPZ,N/A,41.45399857,-87.00710297
11299,Mason County Airport,Ludington,USA,KLDM,N/A,43.96250153,-86.40789795
11312,Reid-Hillview Airport of Santa Clara County,San Jose,USA,KRHV,N/A,37.332901,-121.8190002
11438,Camarillo Airport,Camarillo - CA,USA,KCMA,N/A,34.21369934,-119.0940018
11638,Watsonville Municipal Airport,Watsonville,USA,KWVI,N/A,36.93569946,-121.7900009
11649,Williamsburg Jamestown Airport,Williamsburg,USA,KJGG,N/A,37.23920059,-76.7161026
11742,Union County Airport,Marysville,USA,KMRT,N/A,40.22470093,-83.35160065
11814,St Louis Regional Airport,Alton/St Louis,USA,KALN,N/A,38.89030075,-90.04599762
11815,Chandler Field,Alexandria,USA,KAXN,N/A,45.86629868,-95.3946991
11816,Columbus Municipal Airport,Columbus,USA,KBAK,N/A,39.26190186,-85.89630127
11817,Curtis Field,Brady,USA,KBBD,N/A,31.17930031,-99.32389832
11818,Eastern Sierra Regional Airport,Bishop,USA,KBIH,N/A,37.37310028,-118.3639984
11819,Baker City Municipal Airport,Baker City,USA,KBKE,N/A,44.83729935,-117.8089981
11820,Miley Memorial Field,Big Piney,USA,KBPI,N/A,42.58509827,-110.1110001
11821,Ozark Regional Airport,Mountain Home,USA,KBPK,N/A,36.3689003,-92.47049713
11822,W K Kellogg Airport,Battle Creek,USA,KBTL,N/A,42.30730057,-85.25150299
11823,Burley Municipal Airport,Burley,USA,KBYI,N/A,42.54259872,-113.7720032
11824,Northeast Iowa Regional Airport,Charles City,USA,KCCY,N/A,43.07260132,-92.6108017
11825,Chanute Martin Johnson Airport,Chanute,USA,KCNU,N/A,37.66880035,-95.48509979
11826,Jacksonville Executive at Craig Airport,Jacksonville,USA,KCRG,N/A,30.3362999,-81.51439667
11827,Crossville Memorial Whitson Field,Crossville,USA,KCSV,N/A,35.95130157,-85.08499908
11828,Davison Army Air Field,Fort Belvoir,USA,KDAA,N/A,38.71500015,-77.18099976
11829,Barstow Daggett Airport,Daggett,USA,KDAG,N/A,34.85369873,-116.7870026
11830,Deming Municipal Airport,Deming,USA,KDMN,N/A,32.26229858,-107.7210007
11831,Desert Rock Airport,Mercury,USA,KDRA,N/A,36.6194,-116.032997
11832,Needles Airport,Needles,USA,KEED,N/A,34.7663002,-114.6230011
11833,Duke Field,Crestview,USA,KEGI,N/A,30.65040016,-86.52290344
11834,Murray Field,Eureka,USA,KEKA,N/A,40.80339813,-124.112999
11835,San Marcos Municipal Airport,San Marcos,USA,KHYI,N/A,29.8927002,-97.86299896
11836,Sawyer County Airport,Hayward,USA,KHYR,N/A,46.02519989,-91.44429779
11837,Kimble County Airport,Junction,USA,KJCT,N/A,30.51129913,-99.7634964
11838,Monticello Municipal Ellis Field,Monticello,USA,KLLQ,N/A,33.6385994,-91.75099945
11839,Derby Field,Lovelock,USA,KLOL,N/A,40.06639862,-118.5650024
11840,Mobridge Municipal Airport,Mobridge,USA,KMBG,N/A,45.54650116,-100.4079971
11841,Mc Comb/Pike County Airport/John E Lewis Field,Mc Comb,USA,KMCB,N/A,31.17849922,-90.47190094
11842,Southern Illinois Airport,Carbondale/Murphysboro,USA,KMDH,N/A,37.77809906,-89.2519989
11843,Mc Entire Joint National Guard Base,Eastover,USA,KMMT,N/A,33.92079926,-80.80130005
11844,Brunswick Executive Airport,Brunswick,USA,KNHZ,N/A,43.89220047,-69.93859863
11845,Naval Station Mayport (Admiral David L. Mcdonald Field),Mayport,USA,KNRB,N/A,30.39109993,-81.42469788
11846,Orangeburg Municipal Airport,Orangeburg,USA,KOGB,N/A,33.45679855,-80.85949707
11847,Columbus Municipal Airport,Columbus,USA,KOLU,N/A,41.44800186,-97.34259796
11848,Ottumwa Regional Airport,Ottumwa,USA,KOTM,N/A,41.10660172,-92.44789886
11849,Cairns AAF (Fort Rucker) Air Field,Fort Rucker/Ozark,USA,KOZR,N/A,31.27569962,-85.71340179
11850,Ralph Wenz Field,Pinedale,USA,KPNA,N/A,42.79550171,-109.8069992
11851,Dutchess County Airport,Poughkeepsie,USA,KPOU,N/A,41.62659836,-73.88420105
11852,New Richmond Regional Airport,New Richmond,USA,KRNH,N/A,45.14830017,-92.5381012
11853,Russell Municipal Airport,Russell,USA,KRSL,N/A,38.87210083,-98.8117981
11854,Redwood Falls Municipal Airport,Redwood Falls,USA,KRWF,N/A,44.54719925,-95.08229828
11855,Salinas Municipal Airport,Salinas,USA,KSNS,N/A,36.66279984,-121.6060028
11856,Sonora Municipal Airport,Sonora,USA,KSOA,N/A,30.58569908,-100.6490021
11857,Saline County Regional Airport,Benton,USA,KSUZ,N/A,34.59059906,-92.47940063
11858,Tonopah Airport,Tonopah,USA,KTPH,N/A,38.06019974,-117.086998
11859,Aurora State Airport,Aurora,USA,KUAO,N/A,45.24710083,-122.7699966
11860,Ukiah Municipal Airport,Ukiah,USA,KUKI,N/A,39.12599945,-123.2009964
11861,University Oxford Airport,Oxford,USA,KUOX,N/A,34.38430023,-89.53679657
11862,Huntsville Regional Airport,Huntsville,USA,KUTS,N/A,30.74690056,-95.58719635
11863,Miller Field,Valentine,USA,KVTN,N/A,42.85779953,-100.5479965
11864,Winnemucca Municipal Airport,Winnemucca,USA,KWMC,N/A,40.89659882,-117.8059998
11865,West Woodward Airport,Woodward,USA,KWWR,N/A,36.438,-99.5226667
11866,Cape Canaveral AFS Skid Strip,Cocoa Beach,USA,KXMR,N/A,28.46759987,-80.56659698
11867,Homey (Area 51) Airport,Groom Lake,USA,KXTA,N/A,37.23500061,-115.810997
11868,Zanesville Municipal Airport,Zanesville,USA,KZZV,N/A,39.94440079,-81.89209747
11918,Nenana Municipal Airport,Nenana,USA,PANN,N/A,64.54730225,-149.0740051
11919,Wasilla Airport,Wasilla,USA,PAWS,N/A,61.57170105,-149.5399933